{"type":"FeatureCollection","features":[{"type":"Feature","id":0,"geometry":{"type":"Polygon","coordinates":[[[19.820043675480008,50.019644683834883],[19.82004027626698,50.019646430493026],[19.819816991404025,50.019553995348701],[19.819407670192618,50.019399684773532],[19.818797542059542,50.019128117115201],[19.818477393489673,50.019085015858934],[19.818271182619412,50.019021185549036],[19.817848608394911,50.018892993855502],[19.817442625139392,50.018851676641304],[19.816563246150565,50.018827578138541],[19.816265403381465,50.018844182641942],[19.815725451199114,50.018937357606546],[19.815705509874419,50.01846725489213],[19.815951476354144,50.018439328585885],[19.816109595961507,50.018456560959635],[19.816536038186314,50.018508442210589],[19.817113874764175,50.018553991620649],[19.818029150267762,50.018587481387385],[19.818069606434733,50.018640993308111],[19.818613476320195,50.018787078426556],[19.818649622046053,50.018409498601329],[19.818769807624335,50.018415671466926],[19.819768334812238,50.018819647545683],[19.820789191641722,50.019240935486039],[19.820043675480008,50.019644683834883]]]},"properties":{"FID":0,"Id":0}}]}