{"type":"FeatureCollection","features":[{"type":"Feature","id":0,"geometry":{"type":"LineString","coordinates":[[19.813673104984701,50.01946201388202],[19.815074734663408,50.019174883287917],[19.815768305325822,50.019154479480399],[19.818277877201655,50.019309090921467],[19.819208535545954,50.019357809039803],[19.819853835102684,50.019365235323264],[19.820245054198416,50.019437681285282],[19.821613418633461,50.019982771740935],[19.823218890286885,50.020563699949903]]},"properties":{"FID":0,"Id":0}},{"type":"Feature","id":1,"geometry":{"type":"LineString","coordinates":[[19.823319819408521,50.02046983650397],[19.820418232428803,50.01931622734314],[19.818438463418794,50.018440682222007],[19.818376334640387,50.018425734864948],[19.817152963825261,50.018394466981164],[19.816910993123184,50.0183372709011],[19.815546866332944,50.01832288591411]]},"properties":{"FID":1,"Id":0}},{"type":"Feature","id":2,"geometry":{"type":"LineString","coordinates":[[19.816000364847664,50.018327668145709],[19.816067676672585,50.018111310516773]]},"properties":{"FID":2,"Id":0}},{"type":"Feature","id":3,"geometry":{"type":"LineString","coordinates":[[19.818376334640387,50.018425734864948],[19.818361822003205,50.018003982703469]]},"properties":{"FID":3,"Id":0}}]}