{"type":"FeatureCollection","features":[{"type":"Feature","id":0,"geometry":{"type":"LineString","coordinates":[[19.815016471493085,50.018297842680077],[19.816673429642627,50.018311232146907],[19.818610267194636,50.018370938545367],[19.818958293049242,50.018377527443036]]},"properties":{"FID":0,"Id":0}},{"type":"Feature","id":1,"geometry":{"type":"LineString","coordinates":[[19.816673429642627,50.018311232146907],[19.816669594678128,50.018404439407647]]},"properties":{"FID":1,"Id":0}},{"type":"Feature","id":2,"geometry":{"type":"LineString","coordinates":[[19.81606230810117,50.018306293825681],[19.816063826924037,50.018189927383382]]},"properties":{"FID":2,"Id":0}},{"type":"Feature","id":3,"geometry":{"type":"LineString","coordinates":[[19.816712229091287,50.018312428207643],[19.816708817895329,50.018175465121807]]},"properties":{"FID":3,"Id":0}},{"type":"Feature","id":4,"geometry":{"type":"LineString","coordinates":[[19.818610267194632,50.01837093854536],[19.81857323040283,50.018751446961907],[19.818525514833429,50.018811085653859]]},"properties":{"FID":4,"Id":0}},{"type":"Feature","id":5,"geometry":{"type":"LineString","coordinates":[[19.818588403249173,50.018595564244869],[19.818214813339523,50.018569954124608]]},"properties":{"FID":5,"Id":0}},{"type":"Feature","id":6,"geometry":{"type":"LineString","coordinates":[[19.818958293049242,50.018377527443036],[19.818991498767186,50.01844883053873],[19.820848033213959,50.019222961542305]]},"properties":{"FID":6,"Id":0}},{"type":"Feature","id":7,"geometry":{"type":"LineString","coordinates":[[19.818958293049242,50.018377527443036],[19.818982888724499,50.018074442224261],[19.81879694039598,50.017572664944289]]},"properties":{"FID":7,"Id":0}},{"type":"Feature","id":8,"geometry":{"type":"LineString","coordinates":[[19.818958293049239,50.018377527443036],[19.81947226867662,50.018318022130735],[19.819765547715424,50.018324561913801],[19.820436091312214,50.01836194087111]]},"properties":{"FID":8,"Id":0}},{"type":"Feature","id":9,"geometry":{"type":"LineString","coordinates":[[19.820848033213959,50.019222961542305],[19.819836350609854,50.019761909255159],[19.819646230772506,50.019716969477962],[19.819146384229345,50.019564328182476],[19.819065060410963,50.019543598354453],[19.818411057572195,50.019521106035086]]},"properties":{"FID":9,"Id":0}}]}