{"type":"FeatureCollection","features":[{"type":"Feature","id":0,"geometry":{"type":"Polygon","coordinates":[[[19.821930910504079,50.017984291447078],[19.821676776909896,50.017713719382584],[19.821764148889088,50.017581563916281],[19.822299031886189,50.017502174280594],[19.822380924375238,50.017544920700516],[19.822607968377838,50.017626655262063],[19.822560682037476,50.017899264393407],[19.822441680546149,50.018033298999057],[19.822157014937034,50.01805021125233],[19.821930910504079,50.017984291447078]]]},"properties":{"FID":0,"Id":0}},{"type":"Feature","id":1,"geometry":{"type":"Polygon","coordinates":[[[19.827172795460058,50.017260231101147],[19.826871217597613,50.016992477745475],[19.827019029892313,50.016809119732613],[19.827317631117978,50.016759638397502],[19.827434129755943,50.01711774036886],[19.827549530896476,50.017190237161799],[19.827444465021927,50.017291702685611],[19.827172795460058,50.017260231101147]]]},"properties":{"FID":1,"Id":0}},{"type":"Feature","id":2,"geometry":{"type":"Polygon","coordinates":[[[19.82689029285865,50.011436642594276],[19.826724628741033,50.011319520242068],[19.826715233044695,50.011161372681613],[19.826909550037783,50.010959381203691],[19.827141133960822,50.010850399122887],[19.827421259649384,50.011024203511738],[19.827510668695595,50.011193467980149],[19.827346102075353,50.011361950806759],[19.827111699443435,50.0114234886193],[19.82689029285865,50.011436642594276]]]},"properties":{"FID":2,"Id":0}},{"type":"Feature","id":3,"geometry":{"type":"Polygon","coordinates":[[[19.805350485164183,50.022064112690771],[19.805071299045323,50.021906123057988],[19.805144735407737,50.021806536673523],[19.805433001367646,50.021583093021661],[19.805767929953674,50.021610806327431],[19.805918718884868,50.021744683005352],[19.805771846159871,50.021943855774339],[19.805709526705414,50.021963428808874],[19.805350485164183,50.022064112690771]]]},"properties":{"FID":3,"Id":0}},{"type":"Feature","id":4,"geometry":{"type":"Polygon","coordinates":[[[19.810158952647043,50.021524507855247],[19.809415501184674,50.021298877205481],[19.809234022310989,50.021182694423146],[19.809446972768967,50.021027207643783],[19.809474844002636,50.020962069480277],[19.809341748966688,50.020858882744847],[19.808841156263043,50.020714047086926],[19.80890613649882,50.020472127897847],[19.809653812025999,50.019967461060276],[19.810250074907913,50.019852683633815],[19.810720759311153,50.019761237520527],[19.81103893357141,50.01977407563993],[19.811092954827018,50.019881960223472],[19.810912573450651,50.020051382619613],[19.810921969147159,50.020209530180239],[19.811028132519141,50.020393669835073],[19.811078553423897,50.020708085816864],[19.810962370641391,50.020889564690549],[19.810608026948501,50.021069322352616],[19.810319760988591,50.021292766004478],[19.810158952647043,50.021524507855247]]]},"properties":{"FID":4,"Id":0}},{"type":"Feature","id":5,"geometry":{"type":"Polygon","coordinates":[[[19.811288211389751,50.019695783501618],[19.810889084209919,50.019656013718247],[19.810755049604438,50.01953701222692],[19.811091699401914,50.019326564622361],[19.811396719687536,50.019117996156922],[19.811747463029633,50.019144769893046],[19.811942877520096,50.019228383593884],[19.811622042478575,50.019437891628797],[19.811439781962918,50.019575684512915],[19.811288211389751,50.019695783501618]]]},"properties":{"FID":5,"Id":0}},{"type":"Feature","id":6,"geometry":{"type":"Polygon","coordinates":[[[19.814924349857392,50.018924286884442],[19.814556852189696,50.018882637961724],[19.814333566465564,50.018864162424563],[19.813968887506746,50.018869957770107],[19.813372624624833,50.018984735196398],[19.812949384489798,50.019073362600864],[19.812759607417149,50.019084637436492],[19.812164284104711,50.019215229618908],[19.812082391615661,50.019172483198986],[19.812148311420913,50.018946378766032],[19.812379895344009,50.018837396685058],[19.813401277500247,50.018665621366495],[19.813726810389994,50.018535187111809],[19.814103545826413,50.018465193172233],[19.814617134577134,50.018561644992474],[19.814907437603949,50.018639621275327],[19.814924349857392,50.018924286884442]]]},"properties":{"FID":6,"Id":0}},{"type":"Feature","id":7,"geometry":{"type":"Polygon","coordinates":[[[19.821715623117257,50.02050463300543],[19.821166646575648,50.020346801300207],[19.821119983949359,50.020095644342575],[19.821163669938983,50.020029566609651],[19.821619637083529,50.020224665244655],[19.821768546875433,50.020326912410212],[19.821715623117257,50.02050463300543]]]},"properties":{"FID":7,"Id":0}},{"type":"Feature","id":8,"geometry":{"type":"Polygon","coordinates":[[[19.820553313512562,50.019907122695088],[19.820235139252134,50.019894284575685],[19.820290881719302,50.019764008248728],[19.820482537931298,50.019784362925236],[19.820553313512562,50.019907122695088]]]},"properties":{"FID":8,"Id":0}},{"type":"Feature","id":9,"geometry":{"type":"Polygon","coordinates":[[[19.818828091749594,50.019184349761645],[19.818025139541589,50.019025736414676],[19.817562753337597,50.018989724909773],[19.817072495899765,50.019018851568546],[19.816497527264062,50.018957787538966],[19.816041718047359,50.019032479326484],[19.815466749411485,50.018971415297074],[19.815197898558608,50.018987387980872],[19.815032234440991,50.018870265628721],[19.815017201326839,50.018617229531912],[19.815562261662024,50.018442011790114],[19.816140988576421,50.018566334843854],[19.816769038898201,50.018719468700738],[19.817096450927068,50.018620663958188],[19.817701169935788,50.018648219336285],[19.818002589870503,50.018646182269208],[19.818648334087527,50.018830006068583],[19.818828091749594,50.019184349761645]]]},"properties":{"FID":9,"Id":0}}]}