{"type":"FeatureCollection","features":[{"type":"Feature","id":0,"geometry":{"type":"LineString","coordinates":[[19.815113013369039,50.01817495083418],[19.816873922175013,50.018190152416906],[19.817371818716385,50.018189860962252],[19.818242592570062,50.018191380281849],[19.818959318794679,50.018199389076038],[19.819651692636366,50.018200856745523],[19.820344854646191,50.018215590793922]]},"properties":{"FID":0,"Id":0}},{"type":"Feature","id":1,"geometry":{"type":"LineString","coordinates":[[19.817371818716389,50.018189860962252],[19.817348833350575,50.018562588713237],[19.81732129493146,50.018848351708151],[19.817216780343639,50.019703464073501]]},"properties":{"FID":1,"Id":0}},{"type":"Feature","id":2,"geometry":{"type":"LineString","coordinates":[[19.817216780343642,50.019703464073494],[19.814970741978453,50.019634542627998]]},"properties":{"FID":2,"Id":0}},{"type":"Feature","id":3,"geometry":{"type":"LineString","coordinates":[[19.817216780343639,50.019703464073501],[19.819961976319213,50.019793320270594],[19.820923276816778,50.019794786598439],[19.82139219526664,50.019351555721606]]},"properties":{"FID":3,"Id":0}},{"type":"Feature","id":4,"geometry":{"type":"LineString","coordinates":[[19.818171845592278,50.017852102744705],[19.818242592570062,50.018191380281856]]},"properties":{"FID":4,"Id":0}},{"type":"Feature","id":5,"geometry":{"type":"LineString","coordinates":[[19.821392195266636,50.019351555721613],[19.819010625186205,50.018390713703795],[19.818751181702197,50.018326248258496],[19.817651253833517,50.018277102454185],[19.817371818716385,50.018189860962259]]},"properties":{"FID":5,"Id":0}},{"type":"Feature","id":6,"geometry":{"type":"LineString","coordinates":[[19.815103267921675,50.018324637713413],[19.815299163924632,50.018350276319602],[19.816846391965299,50.018354209110441],[19.817360070859735,50.018380362702601],[19.818034823736589,50.018414072659759],[19.818125849777232,50.018467242817302],[19.818459558487298,50.018482031199092],[19.818457719875525,50.018540718533579]]},"properties":{"FID":6,"Id":0}},{"type":"Feature","id":7,"geometry":{"type":"LineString","coordinates":[[19.817394226504032,50.018074036133655],[19.816873922175013,50.018190152416913],[19.816846391965299,50.018354209110448]]},"properties":{"FID":7,"Id":0}},{"type":"Feature","id":8,"geometry":{"type":"LineString","coordinates":[[19.817394226504032,50.018074036133662],[19.817371818716385,50.018189860962259]]},"properties":{"FID":8,"Id":0}},{"type":"Feature","id":9,"geometry":{"type":"LineString","coordinates":[[19.817394226504032,50.018074036133662],[19.816281319686176,50.017716795071223]]},"properties":{"FID":9,"Id":0}},{"type":"Feature","id":10,"geometry":{"type":"LineString","coordinates":[[19.816281319686176,50.01771679507123],[19.816249990334455,50.018184766134858]]},"properties":{"FID":10,"Id":0}},{"type":"Feature","id":11,"geometry":{"type":"LineString","coordinates":[[19.820849324174699,50.019311916901756],[19.820586885651775,50.019197039216579],[19.820113550777076,50.019028125059734],[19.820021631926426,50.019049561891386],[19.818882086367225,50.01851284387746],[19.818579402302547,50.01843763419128],[19.818584602870605,50.018256265636253],[19.818242592570062,50.018191380281856]]},"properties":{"FID":11,"Id":0}},{"type":"Feature","id":12,"geometry":{"type":"LineString","coordinates":[[19.818671147971685,50.018483335694768],[19.818459558487298,50.018482031199092]]},"properties":{"FID":12,"Id":0}}]}