{"type":"FeatureCollection","features":[{"type":"Feature","id":0,"geometry":{"type":"Polygon","coordinates":[[[19.870020063794687,50.042124202080174],[19.869960144059135,50.042165829915255],[19.869892155331804,50.042184899172071],[19.869551099409602,50.042212531963926],[19.869035351691586,50.042214826839924],[19.868586369471938,50.042190775363238],[19.861963888688816,50.041615246969442],[19.860229745088542,50.041471034560537],[19.86013024787761,50.041455507466132],[19.860076406254048,50.041426484936743],[19.860074285584457,50.04137785100199],[19.860122203760493,50.041281852003415],[19.860107715622949,50.041264181569858],[19.860059353320931,50.041281374909858],[19.859942644437233,50.04137603475931],[19.859873588190069,50.041413471353962],[19.85980260657162,50.041425868600093],[19.859675663251952,50.041421777031317],[19.851978627782405,50.040757331375843],[19.851706151382434,50.040729821597211],[19.851284784101498,50.040670729487125],[19.851046238812447,50.040627695295306],[19.85066776134861,50.040540537404752],[19.850403326878229,50.04047145769804],[19.850033751337726,50.040356029147738],[19.849767704867531,50.040257960212742],[19.849558061362192,50.040170418887676],[19.849242397871844,50.040025108642048],[19.849021531207423,50.039907271463974],[19.848861830140432,50.03980778545052],[19.848807885860008,50.039750027870802],[19.84881052800521,50.039689371486368],[19.848880237594731,50.039546282030109],[19.848881432859354,50.039504108585611],[19.848854864392454,50.039503224190405],[19.848830983365161,50.039515317902527],[19.848684541412325,50.039635113290196],[19.848630750605665,50.03964190430208],[19.848583057242127,50.039624594892203],[19.847083495925727,50.038623319761868],[19.846824062987594,50.038442439951979],[19.846169200498931,50.038012020098975],[19.845695560323431,50.037716992482935],[19.845010764106238,50.037341600309425],[19.844982324982468,50.037310147404675],[19.844978641319376,50.037272654596173],[19.845058073309918,50.037105648614109],[19.845057117124657,50.037069477379141],[19.845037780859276,50.037067833196964],[19.84501557763388,50.037078569780931],[19.844900425763797,50.037182904510622],[19.844852462746761,50.037212259575071],[19.844791543189466,50.037218577092581],[19.844712361805527,50.037195483591852],[19.841771623178737,50.035808302290832],[19.840862103830737,50.035389933228721],[19.840809200584289,50.035352957035165],[19.840793484758859,50.03531078652037],[19.840873009354166,50.035147473215773],[19.8408767367088,50.035122398930469],[19.840868131910881,50.035112853522449],[19.840827777356669,50.035125439224707],[19.840678334134378,50.03524460215278],[19.840622557406927,50.035259035893738],[19.840581824563966,50.035253644910902],[19.840044641388463,50.035011771595606],[19.839481744654268,50.034800671147984],[19.839180402519183,50.03469597765627],[19.838362512498911,50.034451453040404],[19.837469559337034,50.034244171586522],[19.836717090600089,50.034105482851579],[19.836251105826992,50.034040902628746],[19.835810176517779,50.033992354243978],[19.832232810823573,50.033600810183181],[19.832075911954249,50.033576347238984],[19.831840600788944,50.03352472590845],[19.831461561078054,50.033479972004415],[19.831215570488883,50.033436870378992],[19.831079491442857,50.033421560626124],[19.830901551147772,50.033380150931933],[19.830653221907184,50.033299313110568],[19.83028855370371,50.03316725488812],[19.829737706447975,50.032937393924726],[19.829285274929809,50.03280514398525],[19.829213601088462,50.032771708255204],[19.82913428423959,50.032698921712068],[19.829074833170026,50.032671228539279],[19.828725778025259,50.032574048081408],[19.828457429316035,50.032512957193916],[19.828318863071555,50.032473431603592],[19.826879228682856,50.031979264460709],[19.82632276029188,50.031779269061168],[19.825882615805732,50.031636073560279],[19.825356999465818,50.031447280891207],[19.824529507674374,50.031114503018117],[19.823557725046772,50.030737760768162],[19.822413553321336,50.030272116862662],[19.821697913294493,50.029993725481596],[19.821586716566152,50.029932612513669],[19.821570698939929,50.029906449659286],[19.821573758410992,50.029861635294921],[19.821586313882733,50.029784086975496],[19.821559828352541,50.029745884844225],[19.821511542025057,50.029734828538849],[19.821371173269597,50.029760936873629],[19.821311759221771,50.029756720389869],[19.8212112359749,50.029717923826873],[19.821118284046289,50.029655943558375],[19.821044939084452,50.029581878457712],[19.821003474473503,50.029512917519106],[19.820976832704773,50.029425863365958],[19.820971554761062,50.029326075952916],[19.82101243896593,50.029102626593648],[19.821184137372011,50.028741497411254],[19.821382898492534,50.028469155445542],[19.82164895346887,50.028163300179784],[19.821927941477764,50.027863977078063],[19.822144381732873,50.027611792881018],[19.822464085714966,50.027270893343761],[19.822775403348007,50.026956335819349],[19.823709040096762,50.025972730398699],[19.823910206369483,50.025783861447806],[19.82434817606444,50.025389306077507],[19.824994272990228,50.02492928470005],[19.825376440950919,50.024623756583971],[19.825417383538174,50.024602083394797],[19.825488673440066,50.024584325686725],[19.82553933689087,50.02456240426698],[19.825759054133638,50.024415019622964],[19.82613489288941,50.024230570801869],[19.82629424194705,50.024125486349135],[19.826340470914324,50.024084366223619],[19.826367624862097,50.024047862360511],[19.82640299325989,50.023966940883334],[19.826611737215977,50.023730694995741],[19.826667624475082,50.023608018504021],[19.82667215242326,50.023574041922643],[19.826657764501302,50.023546370150953],[19.826606349702722,50.023507330065463],[19.826505337013113,50.023466759270669],[19.826487020097584,50.023439281003405],[19.826483471266656,50.023409876586221],[19.826496063212513,50.023344527139471],[19.826525827739488,50.023277082365198],[19.82674358292882,50.022921276359433],[19.826749131576598,50.022881523699319],[19.826734512507329,50.022838991634252],[19.826701732589228,50.022799708164712],[19.826661315617169,50.022770842596302],[19.82645679495398,50.022664538312533],[19.826311353285469,50.022610109171346],[19.826269165389444,50.022604733436296],[19.826213849177062,50.022611220876783],[19.826164744521272,50.02262716477447],[19.826114781107886,50.022657606939752],[19.825327865350037,50.023510658342936],[19.824999704962277,50.023848487191351],[19.824409994746077,50.024406672535186],[19.824323986170807,50.024508912245274],[19.824210440912516,50.024668430853119],[19.824085704152328,50.024797716543439],[19.82299868730302,50.02582987613004],[19.822134749869399,50.026739622474352],[19.821736455560188,50.027186218706518],[19.821279412853674,50.027691084580184],[19.82043705376925,50.02851026820408],[19.820264588893984,50.028643827704514],[19.820028320321939,50.028783232333915],[19.819936495508799,50.028818344556001],[19.819782112312485,50.028892133531173],[19.819719602164561,50.028910996179256],[19.819642783742832,50.028923468611495],[19.81927850166355,50.028941798934987],[19.819181813306916,50.02893341624501],[19.818861667985349,50.028851922034903],[19.81848356569451,50.028721298965458],[19.815904169432521,50.027694629246234],[19.814531110421772,50.027135479175534],[19.813742917575759,50.026842098573056],[19.811082599882685,50.025770006935275],[19.808036439723651,50.024556915593102],[19.807646818880446,50.024388598278186],[19.80742000251621,50.024241575316573],[19.807291653735891,50.024211048492262],[19.807202129052321,50.024172288346833],[19.807026371873686,50.024076029663092],[19.806780492074111,50.023926546024583],[19.806351758233681,50.02364459229149],[19.806159788288408,50.023495312124957],[19.805753965974407,50.023129338068564],[19.805571127261075,50.022921364504164],[19.805455863231042,50.022767797162054],[19.80533653860121,50.022590061694174],[19.805306321436841,50.022527855589985],[19.805306444618608,50.022506239748715],[19.805318790175047,50.022500623697127],[19.805354029348859,50.022509233864028],[19.805592479467293,50.022624646977413],[19.80563445661846,50.022624908869254],[19.805635617229751,50.02259719944108],[19.805568200310745,50.022533007835541],[19.805213747115321,50.022284824881723],[19.805065356021,50.022148578358546],[19.804985046475764,50.022036288601868],[19.804968352292853,50.021984231537907],[19.804979458346374,50.021955338412262],[19.8050185503077,50.021937826523583],[19.805112265192665,50.021928122817663],[19.805153314510559,50.021925794821925],[19.805188010642723,50.021927424534098],[19.805397346167258,50.021969253106555],[19.80551304764526,50.021982094690998],[19.805634235118941,50.021986550774734],[19.805869125935349,50.021980809146328],[19.806012666554164,50.021948665065715],[19.806182198324649,50.021870201576263],[19.806407176836213,50.021802488874549],[19.806549207271644,50.021783368600417],[19.80686625332125,50.021755848281416],[19.807093910879917,50.021763776631623],[19.807474933486425,50.02175376833231],[19.807640647047833,50.021756666417005],[19.807933393049517,50.021786410066419],[19.808127341397533,50.021820220267969],[19.808567401167373,50.021857336721922],[19.80870970046692,50.021858430605619],[19.808884808942079,50.021840335609525],[19.808975914119937,50.021820556076733],[19.809147741392302,50.021766917110256],[19.809610314796466,50.02170842207547],[19.809701040427704,50.021688442190076],[19.809755203139467,50.021665934641199],[19.809838145957773,50.02160788469547],[19.809879407086797,50.021551655964643],[19.809890162883967,50.021450201401855],[19.809867688467332,50.021346837497134],[19.809889470787905,50.021285532809728],[19.80992822357279,50.021231624764212],[19.81000923426598,50.021152484202041],[19.810118936656906,50.021066798686839],[19.810292146604855,50.020971569291611],[19.810393607201568,50.020925844910117],[19.810515709025186,50.02086617776034],[19.810497947624157,50.020830114575581],[19.810502913675489,50.02079976851148],[19.810596345334247,50.020669532979063],[19.810658848247495,50.020536402314079],[19.810665967278332,50.020468461242451],[19.81065770205435,50.020313619735141],[19.810671153280381,50.020210394552684],[19.81065228484233,50.020065720709219],[19.810669248926413,50.019998321743962],[19.810744235733409,50.019932734239973],[19.810881727439536,50.019845569966918],[19.810941748444034,50.019820679927271],[19.81110695732254,50.019782457240332],[19.811138686033221,50.019764253399067],[19.811160490319775,50.019734078399694],[19.811169868313986,50.019661853376093],[19.811188193008597,50.019639401323658],[19.811234150130883,50.019616619345541],[19.811243638932872,50.019600236270271],[19.811206232756597,50.019515778652497],[19.811219214244865,50.019476949139843],[19.811318950306948,50.019384780596823],[19.811458038623559,50.019306675118848],[19.811525609597556,50.019236912220535],[19.811560533539026,50.019218431304026],[19.811587333194932,50.019229104907026],[19.811611884941648,50.019227025853795],[19.811734082505527,50.019167914529653],[19.811882913645963,50.019110633839098],[19.812054947090452,50.019096827260363],[19.81211209539423,50.019075066933439],[19.812275022719408,50.018955066996789],[19.812353271704122,50.018929140840036],[19.812751409710522,50.018895475696851],[19.812886510448259,50.018873220269057],[19.813048759335061,50.018871532077597],[19.813434370924472,50.018808321125448],[19.813702416403103,50.018789507034747],[19.813947805642702,50.018753466568576],[19.814018609918012,50.018754169192469],[19.814057940236147,50.018766727340925],[19.814200724750989,50.018862000322642],[19.814301109595565,50.018894869599698],[19.814514529430877,50.018937999906711],[19.814665680161678,50.018954461189018],[19.81474764140777,50.018949051732548],[19.814818571311672,50.018927278776268],[19.814870772665429,50.018896290432977],[19.815031530505745,50.018725831131931],[19.815063779041953,50.018711657660184],[19.815120855446047,50.018704075437583],[19.815178777873317,50.018708285755004],[19.815300089527398,50.018734371958963],[19.815419322624319,50.018718741503399],[19.815483667366376,50.018718613227115],[19.815616846670849,50.018747920254746],[19.815787776019718,50.018803045510303],[19.81583426658997,50.018810042129594],[19.815996720087099,50.01880454089612],[19.816182188784364,50.018758133378064],[19.816324130787567,50.01875926990148],[19.816444051095143,50.018747622775827],[19.816628761192113,50.018797030382679],[19.816723535550427,50.018813416974403],[19.816814773908163,50.018820135137183],[19.816916063873418,50.018810102246555],[19.81715468821886,50.018758902383453],[19.817318507559634,50.018758618668905],[19.817382380821368,50.018771847633666],[19.817601481002576,50.018848747940901],[19.817674599413824,50.018861885514788],[19.817788741474534,50.018870545892995],[19.817910799088807,50.018867839485878],[19.81808131937402,50.018848536636227],[19.818257202893147,50.018848803524754],[19.818525514833429,50.018811085653859],[19.818568645348869,50.018819426521311],[19.818597603757542,50.018837583082572],[19.81870552114577,50.018946815844487],[19.818764113157776,50.018985704433291],[19.818944718080576,50.019071061877639],[19.819143374162746,50.019120042277308],[19.81969330092247,50.019254127138623],[19.819907859939725,50.019320984063228],[19.819996017488798,50.019323489360737],[19.820270979917979,50.019278707393795],[19.820345124729958,50.019283158537434],[19.820411114763882,50.019307443336999],[19.820456542550204,50.019336088522422],[19.82051473889759,50.019410334977842],[19.820542446250034,50.019431874631032],[19.820633140749763,50.019461895567332],[19.8207436153223,50.019461385062769],[19.820737672645027,50.019414678388756],[19.820753127779504,50.019404209166446],[19.820962118196686,50.019472580818409],[19.821002720588783,50.019471478445084],[19.821078123186275,50.01945114730372],[19.821156591579527,50.019449299208375],[19.821219497066537,50.019461340824662],[19.821406806521601,50.019520251039012],[19.821474754349641,50.019530079578985],[19.821535300131451,50.019527133626305],[19.821580390137715,50.019514633517375],[19.821608225936235,50.019489472783945],[19.821656686735576,50.01946600586961],[19.821693517836348,50.019399099760015],[19.821749654857229,50.019370595076836],[19.821812641989798,50.019365974464556],[19.82193519268921,50.019376556828988],[19.82205026943284,50.019377438488426],[19.822194125691475,50.019399312784486],[19.822268993788914,50.019388279335573],[19.822474056901736,50.019390562495545],[19.822531422057924,50.019385273285039],[19.822700945652439,50.019318154972304],[19.822830605968406,50.019245721217516],[19.823056546087304,50.019146710535225],[19.823135070406117,50.019126430585715],[19.823326685474523,50.019115790935565],[19.82343508134575,50.019089212445401],[19.82349651397254,50.019090154825818],[19.82378358104134,50.019121078277792],[19.823855168561689,50.019114058110205],[19.823965767767248,50.019080960532243],[19.824034023356518,50.019082174470022],[19.824153001467998,50.019128394031185],[19.824315743739167,50.019241682967085],[19.824374137270809,50.019260363137562],[19.824419824653198,50.019243091129105],[19.824512883376926,50.019152910051112],[19.824550016650317,50.019144368168455],[19.824667087827461,50.019143511056029],[19.824774751293297,50.019121904598073],[19.82511587935825,50.019143736915169],[19.825550744521607,50.019188249217855],[19.82571458856286,50.019188017354288],[19.825914843271661,50.019172943964477],[19.826032817312619,50.019177832556601],[19.826151521240671,50.019208914763752],[19.826241016832167,50.019202150694227],[19.82625517096881,50.019213433672931],[19.826243884147647,50.019243871329842],[19.826295835156987,50.019253075902213],[19.826885013865599,50.01925472074803],[19.826973907891876,50.019239757039173],[19.827150849257023,50.019183379208492],[19.827307850328154,50.019160166341329],[19.827441430227136,50.019170028180199],[19.827595058695671,50.01919199254565],[19.827736127962588,50.019161257962999],[19.827818655491054,50.019158393046808],[19.82811140963036,50.019195857246018],[19.828192772374884,50.019213282057422],[19.828282786366067,50.019215488006701],[19.828383351676468,50.019194258148431],[19.828429205409464,50.019175946929046],[19.828475769383761,50.019179937501583],[19.828491387928249,50.019161290606817],[19.828455092451399,50.019100693893819],[19.828300193385335,50.019045280313975],[19.82826754554565,50.019025133599506],[19.828579187150456,50.019039359598366],[19.828772760795925,50.019030483747891],[19.828911124720722,50.019013821991877],[19.829004093943411,50.019041803945242],[19.829115247651803,50.019046412440318],[19.829275387845019,50.019027750295329],[19.829415164314089,50.019021042795707],[19.829493589143798,50.018997340430417],[19.829575650885019,50.018984963384753],[19.829660588502556,50.018951718131746],[19.829781924618768,50.018927575607528],[19.829866700523553,50.0189023844733],[19.829969117873816,50.01886010796737],[19.830052008678255,50.018811100122967],[19.830070801331221,50.01878862012628],[19.830062278141913,50.018780516418317],[19.830032326057513,50.018776659573987],[19.830029917809156,50.018769633136309],[19.830059052913622,50.018744146177298],[19.830468068090468,50.018522201276589],[19.830671485656225,50.01842777866154],[19.830767086360375,50.018367473691292],[19.830900991835147,50.018299228121478],[19.830916883714913,50.018265654898137],[19.830890659946537,50.018245843486405],[19.830784306705844,50.018237653054022],[19.830664032979524,50.018259791719714],[19.830633275750909,50.018251657375409],[19.830593785561398,50.018226004710797],[19.830547266309303,50.01817775087487],[19.830522309448046,50.018135437189933],[19.830499094803667,50.018041503074762],[19.830494371935995,50.017972054799699],[19.830532324391349,50.017882524132155],[19.830562311030167,50.017843950368949],[19.830601973876895,50.017814521951721],[19.830644831012663,50.017803858860063],[19.830697958826121,50.017801913089571],[19.830911252133355,50.017833242641039],[19.831018318138099,50.017828893384568],[19.831058277379451,50.017811645376568],[19.831071840304872,50.017789181073539],[19.831008116414413,50.017757719172863],[19.831016529042774,50.017742415496414],[19.831053383148394,50.017730041749509],[19.831158102723801,50.017720408200354],[19.831225400168879,50.017705115473987],[19.831320608036069,50.017656962250229],[19.83138833096319,50.017604435449599],[19.831390938989543,50.017591636681459],[19.83137977332343,50.017581147132198],[19.831326411610316,50.017569684126578],[19.831289659485396,50.017569911428531],[19.831250282484003,50.017597257954712],[19.831172985388061,50.017612415393202],[19.831071942979602,50.017648221564968],[19.831029435010961,50.017651996094969],[19.831037390590801,50.017637638563897],[19.83112291744618,50.017587267823501],[19.83115577888357,50.017556977442993],[19.831205658776341,50.017495961328081],[19.831218318864003,50.017427975609202],[19.831373205680297,50.01736125350336],[19.831396824302598,50.017329155220196],[19.831388377922021,50.017278004534113],[19.831319120143046,50.017205950692457],[19.831134797578503,50.017096328579683],[19.831127256616575,50.017084288970452],[19.831206258967359,50.017100361048335],[19.83142228412855,50.017167412938115],[19.831466699151939,50.01719698237077],[19.831552404639591,50.017286709612577],[19.831625770043914,50.017346750018596],[19.831644062032563,50.017354227594922],[19.831692518129238,50.017356048558746],[19.831733873259019,50.017340593287564],[19.831759612713885,50.017304620062411],[19.831761056514615,50.017209511676739],[19.831736972598488,50.017167811873591],[19.831745050405043,50.017155779112485],[19.831794776202802,50.01713677392577],[19.832003505572121,50.017085710963514],[19.832078638342601,50.017041992561246],[19.832141360094116,50.017037679527036],[19.832200246513764,50.017012283658467],[19.832233366232717,50.01701705290111],[19.832270435484954,50.01703658199785],[19.832431949583313,50.017185976547871],[19.832482376809629,50.017220184445712],[19.832542290157665,50.01724702148644],[19.832672176790599,50.017273682997399],[19.832780983043481,50.017314596478869],[19.832791010936546,50.017328556963179],[19.832786113699225,50.017343231850539],[19.832728793432633,50.017377895269661],[19.832706353203118,50.017415271042886],[19.832735570463193,50.017486029752575],[19.832770316033411,50.017536611039425],[19.832817487068052,50.017578374356013],[19.832869724355021,50.017606511487401],[19.832982349147443,50.017651067204248],[19.833078000223711,50.017661758915416],[19.833177157696429,50.017648889505331],[19.833211810594335,50.017616815089276],[19.833220356308754,50.017563633384412],[19.833206639496108,50.01743108711127],[19.833261443984195,50.017366265947572],[19.833259035880907,50.017311316731643],[19.833292177172787,50.017291966650937],[19.833276918080998,50.017257709899937],[19.833280736784889,50.017240587484515],[19.833296002933036,50.017238037001476],[19.833319598925502,50.017254757418982],[19.83336024754469,50.017332732161051],[19.833390651010763,50.017359652034116],[19.833548586030783,50.017386495288683],[19.833589879040581,50.017364577333929],[19.833665610881667,50.017343030038489],[19.833759774681749,50.017332031369698],[19.833802795182734,50.017318609286932],[19.833883797226559,50.017279924487312],[19.833943559239238,50.017224241502497],[19.833973547572622,50.017224986850799],[19.834054823295403,50.017251729859886],[19.834125514068067,50.017257596937867],[19.834182405544603,50.01725008762817],[19.834305909150107,50.017218123565712],[19.834442375216128,50.017205641597265],[19.834457065080457,50.017164421964644],[19.834427081978376,50.01695170902191],[19.834439933296419,50.016916156257473],[19.834479880110507,50.01689250046639],[19.834517726300234,50.016899119916829],[19.834671930627568,50.016990820979508],[19.834774414351237,50.017004263776677],[19.83486078480891,50.017041299803545],[19.834927377990859,50.017052524732513],[19.834967122515611,50.017009711346788],[19.835025454660794,50.017000517834141],[19.835087640984359,50.016975079656483],[19.835089030796119,50.016920815692529],[19.835102716842258,50.016908799015631],[19.835199299464932,50.016892659836707],[19.835320898113523,50.016848118147472],[19.835375396312461,50.016847810397714],[19.835419891624671,50.016838162987774],[19.835491794922607,50.016838773515346],[19.835520920652112,50.01680830905385],[19.835520744761361,50.01676966506561],[19.83553309424385,50.016744675444059],[19.83557490134805,50.016711102098952],[19.835721063319532,50.016695916312642],[19.836028299089904,50.016680830438226],[19.836088472469605,50.016683795021166],[19.836137707687659,50.016659577801917],[19.836181513541067,50.016681502467335],[19.836301331434516,50.016627763357647],[19.836452689064295,50.016622344917721],[19.836640374143197,50.016587222932195],[19.836671725253655,50.016589839007445],[19.836724547520344,50.016610910330115],[19.836788930893718,50.01661324859846],[19.836857932343598,50.016626635000762],[19.836955538037056,50.016619380408187],[19.837074615366642,50.016574347634574],[19.837270907444026,50.016538804462677],[19.837490110376741,50.016482930867248],[19.837532283949344,50.016462176541026],[19.837636506068627,50.01637838472115],[19.837702969811698,50.016350942138402],[19.837774422466779,50.01633603485984],[19.837992787458798,50.016309938883794],[19.838067607427934,50.016292284646418],[19.838090511418802,50.016281516385298],[19.838117340721194,50.016248620695315],[19.838225753926388,50.016200519341446],[19.838356444640169,50.016114492470493],[19.838513350244487,50.01605827347052],[19.838549226813171,50.016035725308605],[19.838573465404146,50.016050869162065],[19.838639285332341,50.016135774925374],[19.838668510370269,50.0161523825033],[19.838705497483616,50.016159862402212],[19.838780538851612,50.016155113949253],[19.838845923886389,50.016137784718651],[19.838865423597337,50.016121164140969],[19.838862653165869,50.016095005901938],[19.838883921280253,50.016084203425002],[19.838919923825181,50.016087983652362],[19.838975435003341,50.016110537894498],[19.8390123399241,50.016114419531739],[19.839099794918233,50.016097545068995],[19.83914080262652,50.016054563657129],[19.839180890002051,50.016080835293266],[19.839206938903757,50.016080780062673],[19.839218580655057,50.016061450608518],[19.839193809386781,50.015997059035271],[19.839193974168683,50.015958342401461],[19.839222558054047,50.015923948375537],[19.839284376289427,50.015890089503699],[19.839305147101491,50.015888821857246],[19.839325122641263,50.015896805169703],[19.839386140690269,50.015962963326395],[19.839451152529076,50.015997647508129],[19.839517513567717,50.015959591885355],[19.839670553508718,50.015931150208125],[19.839815281164693,50.015937939153986],[19.839889156542316,50.015970133379192],[19.839915088657786,50.015974194914754],[19.840100862790521,50.015953883742071],[19.840141548678471,50.01595648168005],[19.840126831102157,50.015967387210864],[19.839990722407705,50.016006971042778],[19.83997125859629,50.016019779566093],[19.840113026727654,50.016012728046213],[19.840126324655177,50.016016173847987],[19.840117502959338,50.016025611582805],[19.839901162983477,50.016079707842813],[19.839878099554987,50.016091473573177],[19.83989064935194,50.016097336884577],[19.840215542720433,50.016077852073316],[19.840436016097588,50.016040293973674],[19.840527114956743,50.016046885637387],[19.840591031508652,50.016070436258971],[19.840655762129423,50.016121193859775],[19.840669980569885,50.016148903857363],[19.840683540850335,50.016246039571058],[19.840712099504191,50.016275864304859],[19.840788603724285,50.016269731928126],[19.840986988373288,50.016206874312758],[19.841029343989135,50.01620000769946],[19.840911864997086,50.016248275443061],[19.840434924530342,50.016407788191422],[19.840122666022609,50.016505070959198],[19.839080099186127,50.016800640991946],[19.837782955767931,50.017137188956795],[19.837470164064712,50.017236264181932],[19.837245038749529,50.017290767044088],[19.836714973384282,50.017401868362207],[19.835506074689732,50.017716379629448],[19.834894170690209,50.017891148921208],[19.834171919123481,50.018116246946036],[19.833506363912718,50.018333357843815],[19.83283638679173,50.018582328533789],[19.832020457953707,50.018910997195285],[19.831627138350044,50.019085118283776],[19.831020278052417,50.019370256889957],[19.830104354047442,50.019849068119179],[19.829863805025557,50.019953421503367],[19.829628431643744,50.02003630859987],[19.829293930217002,50.020110245515568],[19.828930454267478,50.020148139090828],[19.828603694912875,50.020163360814912],[19.828003477101152,50.020169389614544],[19.8275901413908,50.020193493439145],[19.827449168578394,50.020211976986374],[19.827274477282625,50.020247524021947],[19.827162567841718,50.020280538718822],[19.827101671746167,50.020311589172593],[19.827110366302325,50.020323668496921],[19.827159298101769,50.020326112352066],[19.827399944136264,50.02031695814253],[19.827709372188767,50.020287866980013],[19.828117893888642,50.020284634772082],[19.828872373378431,50.020292007502697],[19.829264595878364,50.020264480028118],[19.829354247549922,50.020269125895169],[19.829360552597549,50.020284479902031],[19.829323323089138,50.020314119007267],[19.82872354264223,50.020682121866571],[19.828350311922613,50.020943627954217],[19.828283252371079,50.020977050514652],[19.828268828043512,50.020971308194866],[19.828259262625824,50.020952946351763],[19.82821050058692,50.020778567695345],[19.828138962242122,50.020667366636452],[19.828088111346524,50.020620079323024],[19.828008942078085,50.020566219398361],[19.827831336028424,50.020472102476376],[19.827737664914409,50.020441832186208],[19.827633377779261,50.020419312777946],[19.827405512289225,50.020397490939402],[19.82727516779326,50.020401243466146],[19.827160243077678,50.020416521604943],[19.827049906109213,50.020442333773005],[19.827016614528151,50.020465889164974],[19.827050787601898,50.020477898471505],[19.827115396282316,50.020485360636989],[19.82748172916445,50.020509665840898],[19.827581876698723,50.020526770893092],[19.827668798446808,50.020551553665385],[19.827752373050657,50.020587463303258],[19.827817129899767,50.020626691120057],[19.82791008499758,50.020702130813049],[19.827970484859797,50.020776667311097],[19.828005261650265,50.020858949389321],[19.828014084576399,50.02092356503298],[19.828007689440078,50.020980045417623],[19.827970559806019,50.021063994857371],[19.827832657476939,50.021253812495814],[19.827736772950914,50.021345033912581],[19.827568532833109,50.021482071480918],[19.82752589541089,50.021543469774784],[19.827533963865896,50.021571513100547],[19.82756402054973,50.021594373960539],[19.827779771589352,50.02168806803914],[19.827897464960344,50.0217240301819],[19.827938763654881,50.02172490872892],[19.827984248129866,50.021712993518022],[19.828294845972628,50.021464598848468],[19.82850233494754,50.021334026771463],[19.828588966596982,50.021291012211897],[19.828692506761517,50.021252036100144],[19.828800315859691,50.021226307007083],[19.828904028749832,50.021212724076022],[19.829012145837932,50.021208310701788],[19.829134461800294,50.021217220026664],[19.829232038384774,50.021234600236902],[19.829336904060387,50.021266649872999],[19.829428082017042,50.021309385681541],[19.829526683556924,50.02137386150352],[19.829589367787637,50.021430274599446],[19.829643561625389,50.021504664756854],[19.829759202204702,50.021708293914877],[19.829773802466345,50.021725118052068],[19.829789438564099,50.021727575754696],[19.829822479844747,50.021678170616035],[19.829823715988741,50.021582700344233],[19.829795310423961,50.021476033985451],[19.829737911946573,50.021377098121732],[19.829662740836152,50.021300002376336],[19.829576200973424,50.021234854745643],[19.82949691209566,50.02118815281284],[19.829278718079252,50.021087020958163],[19.829240150863203,50.0210596752299],[19.829233011773557,50.021044707746555],[19.829273718885666,50.021020420361545],[19.829471891160956,50.020962125703463],[19.829632824312252,50.020889740617712],[19.829696027415658,50.020872453769698],[19.829745805811068,50.020867421268619],[19.829774339975366,50.020874736833072],[19.829796707647287,50.020892993512369],[19.829824815953828,50.020965320898306],[19.829835238793184,50.021156225927555],[19.829884793586995,50.021419862616767],[19.829883184229413,50.02167279271945],[19.829900975888567,50.021743549226926],[19.829919690744934,50.021763655672487],[19.829951523650621,50.02174056962491],[19.829985285826485,50.021681873600336],[19.830041840392042,50.021515490981308],[19.830058184921956,50.021331511052146],[19.830027191772476,50.020983117870465],[19.830028508499122,50.020724511893597],[19.830053136187118,50.02059758401974],[19.830088808346773,50.020491033352101],[19.830133718606803,50.020408134174723],[19.830214778273842,50.020299239866432],[19.830297275983209,50.020209068525141],[19.830401745955825,50.020116265748058],[19.830603601292733,50.019989232661409],[19.830976081279456,50.019782072112022],[19.831751404017112,50.019398829929919],[19.83273465310911,50.018959390406778],[19.833400552027804,50.01868517376073],[19.834065805678797,50.018436868945557],[19.835009326249459,50.018124108153529],[19.835406666036267,50.018002927480204],[19.836012555945832,50.017833802980348],[19.836368090527049,50.017715637236336],[19.836604700588921,50.017650522424006],[19.837213349277974,50.017504614308237],[19.837583474398805,50.017433861141598],[19.838278281997752,50.017265228222655],[19.839236906887734,50.017028006543157],[19.839927005184787,50.016843878130246],[19.840611914347022,50.016645611277298],[19.840756400829672,50.016610684895248],[19.840765694274573,50.016612999038337],[19.840762316914788,50.016641495084272],[19.840786520330411,50.016654405701409],[19.84091163723447,50.016644171997591],[19.840950986153668,50.01664885132643],[19.840997560403764,50.016675906637488],[19.841106835337005,50.016709105788998],[19.841295024116853,50.016812388054902],[19.841434623361572,50.016968438271554],[19.841760282502509,50.017419550480994],[19.841825173204562,50.017524602521668],[19.841921315385655,50.017729009012136],[19.841906533780438,50.017794346439473],[19.841860439695388,50.017823387245009],[19.841795228773723,50.017835007474822],[19.841573508540307,50.017852274782435],[19.841498245770033,50.017873581825306],[19.841477075156799,50.017896932938214],[19.841463219398637,50.017942327375167],[19.841470478769683,50.018036418229343],[19.841505170412958,50.018066496085872],[19.84157048466416,50.018076755716173],[19.84185020789517,50.018062244436699],[19.841992402150073,50.018074691909774],[19.842037679985879,50.01806245237772],[19.842063792415093,50.018073240003126],[19.8420922878426,50.018122182350389],[19.842120426032011,50.018206041527932],[19.842147952446677,50.018386456198719],[19.842208026650301,50.018552532006332],[19.842223159342755,50.018658082586242],[19.842246213722301,50.018687852417564],[19.842264359522964,50.018688920896707],[19.84228184568514,50.0186782964008],[19.842330947901036,50.018619221761888],[19.842357592150524,50.018554592602889],[19.84235810013578,50.018521994970762],[19.842273801444048,50.018365782927404],[19.8422158999579,50.018196514576076],[19.842205421207503,50.018135205723517],[19.842234344320168,50.018181765253317],[19.842307695458629,50.018397716094661],[19.842341333073396,50.018441575595567],[19.842382433410354,50.018458325454866],[19.842410925518266,50.018444202222987],[19.842438544111182,50.018409751446875],[19.842778897657023,50.017771648578893],[19.842790850732488,50.017705123298029],[19.842759103643353,50.017557487205444],[19.842770892200058,50.017559861340054],[19.842807069955718,50.017618113489497],[19.842824326463539,50.017627593238458],[19.842838524465513,50.017625065451803],[19.842881832283528,50.017577356143661],[19.842996585752918,50.017380753716957],[19.843232790064704,50.01691092994718],[19.843313603884933,50.016808915258331],[19.843399179960542,50.016738082429193],[19.843511917989591,50.016687300509567],[19.844465030723711,50.016382424331539],[19.844913644216248,50.016219795786377],[19.84603470931626,50.015859207401682],[19.846712728687084,50.015624578388056],[19.846765226709969,50.015587604919347],[19.846768962129136,50.015550372782634],[19.84660897617961,50.015248607324452],[19.846597574158409,50.015204084781878],[19.846649082505504,50.01526392432671],[19.846799083867563,50.015522212200899],[19.846844596276277,50.015557046244801],[19.846906575432204,50.015559599773027],[19.847013026638052,50.015531366055988],[19.848539387718144,50.015014780343684],[19.848993721790482,50.014866895798285],[19.849061344020402,50.014850928150594],[19.848972264829214,50.014888454614891],[19.847702401270567,50.015322408263557],[19.847095960915993,50.015517505525253],[19.845780179013833,50.015961393599426],[19.84525288365019,50.016143683793075],[19.845077891188257,50.016211904254895],[19.844824827765596,50.016290389727914],[19.844277049302502,50.016483213303118],[19.843952557722677,50.016588590938724],[19.843637417790617,50.016700316260184],[19.843515755016703,50.016761631966396],[19.843408457894469,50.016848294451066],[19.843299992083008,50.017003979616788],[19.84269198936412,50.018150359825881],[19.84252314618255,50.018522516070249],[19.842453174828155,50.018612012349656],[19.842407066744922,50.01869793182653],[19.84239739664563,50.018739984227985],[19.842408053710102,50.018783120738853],[19.842457502803377,50.018824291407839],[19.842584808633067,50.018857315977435],[19.842802640164233,50.018974137692389],[19.842827892199008,50.019010492466322],[19.842859355244748,50.019118120488862],[19.842916137995616,50.019238259199291],[19.843104938514383,50.019426368466725],[19.843192994436652,50.019539138084788],[19.843288104664087,50.019626991660658],[19.843602266453654,50.019927136012598],[19.843678536858153,50.019988428849913],[19.843841382937292,50.020097274057377],[19.843921259557405,50.020136898488623],[19.843988079541912,50.020155202527278],[19.8440079943428,50.020149929455222],[19.844013445434811,50.020135086322739],[19.843983000019595,50.020068115373803],[19.843980763069322,50.020022766617075],[19.843912150896244,50.019953799716156],[19.843906444783709,50.019935354400452],[19.84392536756398,50.019900161296],[19.843988652075332,50.01984843314969],[19.844015768156666,50.019837602501667],[19.844089515945448,50.019840334655612],[19.844184721998971,50.019871375926286],[19.84425638280899,50.019884495673324],[19.8444251235282,50.019893823944187],[19.844516074958797,50.019890681623245],[19.8446523602498,50.019913318242871],[19.844749267592139,50.019892043235792],[19.844829581629533,50.019917651200338],[19.844894367539847,50.019913923542269],[19.845000555119146,50.019928716773371],[19.845075653861958,50.019928530667933],[19.845110492131617,50.019937468178732],[19.845221652692555,50.019983800483118],[19.8453270568798,50.02004966458167],[19.845441785259659,50.020078869392549],[19.845609108037021,50.020183249441381],[19.84580465902236,50.020264155741913],[19.84613276951378,50.020364671113597],[19.846340392819826,50.020481922298664],[19.846498433004953,50.020539417586598],[19.846653816711086,50.020564523437805],[19.846663703488726,50.020573841358917],[19.846658264396037,50.020584874345232],[19.846556530140969,50.020631311775887],[19.846528586325128,50.020653755044997],[19.846516336330797,50.020688190041355],[19.846525853519648,50.020704526446139],[19.846549498058877,50.020717372460226],[19.846763653365013,50.020753512342161],[19.846877069328688,50.020763598820722],[19.846945086304505,50.020757184259772],[19.84704498710612,50.020724888591111],[19.84707337024836,50.020766033820614],[19.847110382219029,50.0207867200997],[19.847302291207839,50.020826921536631],[19.847413324159117,50.020868460930551],[19.847487788679224,50.02091111659815],[19.847636041274683,50.021016766605541],[19.847638725300502,50.021093672221411],[19.84765954216801,50.021161564551399],[19.847640455608996,50.021229540531287],[19.847665485496726,50.02126410459055],[19.847711996019935,50.021294527004166],[19.847781769994405,50.021306581433073],[19.848035154492134,50.021308887458538],[19.848167164055731,50.021373554089479],[19.848273093730537,50.02141247497859],[19.848451400356758,50.021467148283186],[19.848672908824589,50.021516154918224],[19.848891285032451,50.021616080357298],[19.849021380731585,50.021655236737459],[19.849104760530562,50.021690168885208],[19.849183807309963,50.021774683958363],[19.849314699081958,50.021880890711685],[19.849415907924985,50.021928590987436],[19.849464281955985,50.021935751092563],[19.849497731238273,50.021928669494535],[19.849590948176871,50.021874684981945],[19.849711010292701,50.021901482144393],[19.849775506984599,50.021952311931592],[19.849805009643898,50.022016134852848],[19.849801837945847,50.02207183533848],[19.849810858376919,50.022094129253098],[19.849880193633723,50.022144222689583],[19.8498781148425,50.022171318555124],[19.849821736243388,50.022250437143697],[19.849821392503276,50.022272349788437],[19.849836633761146,50.02228528546209],[19.849871202540356,50.02229645114916],[19.849941753096395,50.022301911970452],[19.850430052505693,50.022284142791008],[19.850536817717131,50.022273523110549],[19.850708542622527,50.022243483282097],[19.85075781525082,50.022244249368285],[19.850766458297709,50.022260724987312],[19.850737397764387,50.022286139229635],[19.850514236060121,50.02239872020823],[19.850397671731788,50.022469530699148],[19.850381044300054,50.022493099343691],[19.850522184264818,50.022451848871441],[19.850551539392441,50.022452438037007],[19.850483479708778,50.022507001878211],[19.850295517208259,50.022626821557942],[19.850275944848164,50.022655073053777],[19.850307762086938,50.022654479143675],[19.850446432981531,50.022603381767659],[19.850498642630278,50.022594100305696],[19.850546742910016,50.022603424819316],[19.850605476429266,50.022631373207489],[19.850637866709921,50.022632627466102],[19.850683737009888,50.022591904173581],[19.850727366091686,50.022578704385751],[19.850710892532533,50.022654861472212],[19.850746590092573,50.0226895086045],[19.850838965100806,50.022733399240487],[19.850973058977527,50.022746138940235],[19.851024353392869,50.022772548319374],[19.851115337186172,50.022843740104832],[19.851212184568194,50.022851456234271],[19.851236490804265,50.022863210515233],[19.851334443479342,50.023004648209067],[19.851401103789428,50.023063699669208],[19.851461127060073,50.023097717360145],[19.851463306273573,50.023182998183799],[19.851600540196941,50.023304386651887],[19.851696438491718,50.023432907880753],[19.851757278888197,50.02348048133176],[19.851817864240587,50.023581140969],[19.851810646788579,50.023588614582216],[19.851794489964359,50.023588317521657],[19.851693063153597,50.023557132912082],[19.851677726139364,50.023560551831515],[19.851677090727062,50.02357863664362],[19.851753344386307,50.02363190986383],[19.851846868382335,50.023728058690239],[19.851936602024498,50.023780980923917],[19.852004357814671,50.023803097160034],[19.85204988481026,50.023803282011563],[19.852113697214211,50.023777572684786],[19.852276558659202,50.02368690801967],[19.852318776733224,50.023672934371],[19.852349210323908,50.023673580839571],[19.852394380408196,50.023691876216468],[19.852642271095814,50.023849730091854],[19.85276859346736,50.023954939968895],[19.852831497078878,50.02399409010156],[19.852858273768632,50.02399696035237],[19.852900975521869,50.0239848228019],[19.85291745302019,50.023970572081076],[19.85293945694951,50.023912901337276],[19.852992846283385,50.023895819679922],[19.853039817928824,50.0238961959543],[19.853073288699143,50.023905419133932],[19.853130466995783,50.023936373641334],[19.853143324134702,50.023957173494217],[19.853145138086095,50.024017955737527],[19.853069574977578,50.024077990574284],[19.853054584981528,50.024099508864985],[19.853069567894376,50.024127738024433],[19.853144650607231,50.0242065377141],[19.853131108408775,50.024255630731062],[19.852974160181123,50.024423066757123],[19.852794180624468,50.024593703769703],[19.852731101458893,50.024624821505142],[19.852642301879253,50.02462574929686],[19.852603947315941,50.024615511038675],[19.852460004026714,50.024550940722321],[19.852290990102198,50.024457027473296],[19.852115963909842,50.024379395709829],[19.851955628370895,50.024320182223192],[19.85156723077451,50.024201312323619],[19.851328024764683,50.024088473161129],[19.851089397884987,50.023988982440095],[19.850991102223674,50.023928509175278],[19.850839639709005,50.023812991328882],[19.850676525090265,50.023648333124548],[19.850587987056237,50.023574217080792],[19.850501636121578,50.023518525862862],[19.850373317950975,50.023459544267197],[19.850235229846156,50.023410734919572],[19.850071310289842,50.023376962201617],[19.850010279638944,50.023377142950217],[19.84997219633653,50.023395562325476],[19.849810719430611,50.023435875122516],[19.849774708015065,50.023431003409108],[19.849702135273628,50.023395073132605],[19.849667122028052,50.023385827886969],[19.849634240408658,50.023387542328379],[19.849613808581989,50.023398854360252],[19.849563693911008,50.023465374482925],[19.849560935774608,50.023493316518802],[19.84958924453915,50.023514511066026],[19.849685239374455,50.023530912212124],[19.849694784400732,50.023552216230648],[19.849516920937123,50.023783528378807],[19.849498978190475,50.023826000883133],[19.849503561092341,50.02386572998028],[19.849523082242872,50.02388820435133],[19.849680864400032,50.023992758113607],[19.849728848385418,50.024096663600602],[19.849793066261249,50.024125980250005],[19.849901107963912,50.024128502570001],[19.849937838665216,50.024146328093607],[19.849946326852901,50.024174758167703],[19.849914577539536,50.024216692177383],[19.849913228379993,50.024257915900655],[19.849926516268454,50.024278746239716],[19.850025142698296,50.024327848611968],[19.850153418431734,50.024336293582877],[19.850192994949754,50.024349898429939],[19.850232779509916,50.024377423522928],[19.850298168707738,50.024454461597884],[19.850348201627742,50.024476411760801],[19.850580755170206,50.024466488785407],[19.850640126375403,50.024470634811117],[19.850671533232969,50.02448065834006],[19.850687966616281,50.024504187992008],[19.85068588610303,50.024558760368613],[19.850713199776621,50.02461107766959],[19.850702788878394,50.024684056666707],[19.850715961321406,50.02470575686047],[19.850824677736689,50.024719123622852],[19.850902777038787,50.024741251033454],[19.851060771911218,50.024717071196484],[19.851107422133506,50.024715414616423],[19.851148189175579,50.024722546143003],[19.851200487689436,50.024762264368377],[19.851241977357212,50.024855240658432],[19.851276083490269,50.024888700007985],[19.851338316122675,50.024914776191622],[19.851387561420278,50.024922610170968],[19.851441857388998,50.024923779065446],[19.851496803059852,50.024909404643537],[19.851516167200188,50.024911704310917],[19.851528751544812,50.02492507671063],[19.851528856113369,50.024944577595853],[19.85149089408722,50.025023925291549],[19.851486627294598,50.025061974744325],[19.851540311097452,50.025111368699491],[19.851660986374849,50.025174217972733],[19.851745521035813,50.025194714135537],[19.851881511559771,50.025195929157235],[19.851956104588599,50.025205453568539],[19.852391960184086,50.02530353265589],[19.852645569274902,50.025310774396232],[19.852713108389271,50.025302684761996],[19.852854094532656,50.025263516295738],[19.852881057984181,50.025247634757079],[19.852918024558932,50.025207063308109],[19.852974834887107,50.025200440594915],[19.852975377361638,50.025188332195377],[19.852951873967555,50.025165462122708],[19.852911989270581,50.025144946372485],[19.852885114685918,50.025140448416103],[19.852837834197864,50.02514998711672],[19.852763188592803,50.025202649243361],[19.85271817090948,50.025216556349513],[19.852649859621405,50.025207921049315],[19.852628581228416,50.025179619336896],[19.852639329267337,50.025145171358119],[19.852688879615325,50.025094168299695],[19.852757792840581,50.02505335945785],[19.852845012579348,50.025023184412277],[19.85286322650979,50.024985048599582],[19.852862510844297,50.024907013056513],[19.85289149965066,50.024855441269914],[19.852916035141146,50.024838816429359],[19.8529425931989,50.024834518648319],[19.853052820745543,50.024869286610283],[19.853372516161063,50.024885524557433],[19.853428299712075,50.024875124180809],[19.853507985899231,50.024821382708069],[19.85352149916778,50.024790529255455],[19.8534987621784,50.024764888911214],[19.85338181632871,50.024680485462483],[19.853360324309019,50.024653536784889],[19.853381941082731,50.024629279655009],[19.853463641597468,50.024587096993898],[19.853533074419556,50.024534077785013],[19.853570598482655,50.024524710427571],[19.853596803201533,50.024536578005375],[19.85363818083869,50.02462715930416],[19.853666411004223,50.024724541785815],[19.853678003019134,50.024736497946215],[19.853695482075963,50.024738806619013],[19.854193349248987,50.024502482525222],[19.854269477478063,50.024495925705189],[19.854372815465666,50.024470105900932],[19.854445154850918,50.02447425076948],[19.85454360249976,50.024525193189554],[19.854594415031428,50.024590968627457],[19.854659156469463,50.024628100628654],[19.854682477849309,50.024685304726674],[19.854721471488617,50.02470288265171],[19.854717076361997,50.02473418460994],[19.854674531793631,50.024822086267562],[19.85467834395067,50.024837336707179],[19.854700072540385,50.024831060588888],[19.854754371689584,50.024778348242997],[19.854847938056054,50.02471574783565],[19.854891726610493,50.024704092778592],[19.854914745142505,50.024717860282443],[19.854885043249631,50.024801515340762],[19.854828008473703,50.024879250252638],[19.854841717421724,50.024884254102119],[19.854862836377173,50.024879902380235],[19.854921360511245,50.024853348775295],[19.854922262828762,50.02486980193553],[19.85482440778696,50.025038088051289],[19.854791510323725,50.025067684525396],[19.854750367741985,50.025085159034404],[19.854717272012316,50.025088477936812],[19.854651724971141,50.025066976798314],[19.854630120774914,50.025073501204751],[19.854605906235573,50.025099057954414],[19.854610461344702,50.025119818016535],[19.854647576647988,50.025144380587534],[19.854804069766072,50.025198810725975],[19.854857431187959,50.025228581515563],[19.854915689710062,50.02522740109697],[19.854920239608909,50.025243374840763],[19.85484467496428,50.025400951492024],[19.854566928666451,50.025808958305078],[19.854522063817349,50.025923260345323],[19.854549703928235,50.025972916657722],[19.854617721700283,50.026023957129588],[19.85470580703927,50.026076521383196],[19.854832412511321,50.026131551274553],[19.854942552274867,50.026171906955739],[19.855120123888437,50.026220568216871],[19.855295368492289,50.026285546016759],[19.855355028885395,50.026297018166289],[19.855410396971841,50.026293273101814],[19.855497168894715,50.026246109650401],[19.855534136803893,50.026239107445477],[19.85555853063719,50.026248482297348],[19.8556134672822,50.026299381108828],[19.855647170321468,50.026306305828939],[19.855684861150273,50.026303833576421],[19.855730764223019,50.026283863888509],[19.855799238187437,50.026227265149934],[19.855829040469615,50.026215317923764],[19.855844210266962,50.02622776390222],[19.855846337939351,50.026304980186318],[19.855878412099241,50.026324291170397],[19.856065829561054,50.026353155394716],[19.85628163847732,50.026376091405034],[19.856355289490946,50.026392647411484],[19.856379554309132,50.026409126085227],[19.856382889689698,50.026424935992225],[19.856360346685598,50.026530347930034],[19.856364810094288,50.02657142626591],[19.856389630033618,50.026614798832462],[19.856458160183408,50.02668223936778],[19.856528111170825,50.026725748453686],[19.856688112289188,50.026771750667073],[19.856757218113533,50.026802509168917],[19.856873578941851,50.026877974222934],[19.85691280559038,50.026939270958735],[19.85692865853289,50.026945578573191],[19.856985263801274,50.026927504179056],[19.857049296742037,50.026878474195485],[19.857136759786702,50.026788015897665],[19.857236312428153,50.026663891845445],[19.857293777513142,50.026615061387595],[19.857330828591753,50.026601432688814],[19.857383482295337,50.026606962734036],[19.85745908659047,50.026601093263714],[19.857476228199637,50.026614599587667],[19.857489419211227,50.026668751546737],[19.857550099406097,50.02664826258966],[19.857561584003619,50.026648928961635],[19.857565807387758,50.02665803768911],[19.857545361287027,50.026703031963628],[19.857445799723099,50.026838302590512],[19.857422481454144,50.026886006333058],[19.857421977249992,50.026917617020388],[19.857450563907154,50.027018119648183],[19.857460511759125,50.027036165874058],[19.857484606123311,50.027050796715791],[19.857539789682924,50.02705343349222],[19.857590243742813,50.027030070003775],[19.8576572565484,50.026982455365697],[19.857685147713713,50.026978001800046],[19.857694979085135,50.026992247682507],[19.857692833029894,50.027024112521843],[19.857647342857902,50.027119100468809],[19.857639507893197,50.027158850835555],[19.857659908147323,50.027214166770086],[19.857680168720599,50.027227210064311],[19.857735035502007,50.027221222875056],[19.857843876257899,50.027184452402459],[19.858009917771696,50.02714392287502],[19.858045708547898,50.027123978456672],[19.858083565194235,50.027082420825906],[19.858137555356137,50.026978731039975],[19.858154364254784,50.026918996069028],[19.858129886471755,50.026876035205042],[19.85801511469209,50.026767900058374],[19.858005241558022,50.026747706669219],[19.858024988949591,50.026736418918333],[19.85807767946174,50.026747372599964],[19.858254054130459,50.02682308076529],[19.858286436542251,50.026829444084171],[19.85832989643875,50.026813156770089],[19.8584333192792,50.026743518797559],[19.858459980830464,50.026739746208307],[19.858516564183002,50.026748221940714],[19.858640323832944,50.026708536013615],[19.858745384897439,50.026700658267792],[19.85879109796495,50.026716134711563],[19.858852360190024,50.026768878127413],[19.858934184179525,50.026802359034313],[19.859127699175477,50.026839399041215],[19.859300506162953,50.026906728938791],[19.859455521379669,50.026896349279269],[19.859532452395143,50.026911751669694],[19.859720369235173,50.026851298695959],[19.859802490358312,50.026851863476772],[19.859931983605495,50.026876710650434],[19.860013767129544,50.026877840988654],[19.860117045225525,50.026903214216198],[19.860241058777746,50.02690789644933],[19.860441746415535,50.026954150590555],[19.86049496774444,50.0269868744072],[19.860565048029205,50.027168772929912],[19.860549481667384,50.027184631116945],[19.860466109238793,50.027214350667535],[19.860434775871344,50.027239767080339],[19.860437518814461,50.027258609616446],[19.860499089830576,50.027301450599026],[19.860495526916811,50.027321759600603],[19.860449270929198,50.027332317646795],[19.860242973561942,50.027326749439297],[19.860186161632136,50.027331803960998],[19.860171986140493,50.027340471371446],[19.860179119410706,50.027349516149776],[19.860286975174702,50.027385129740175],[19.860303320774037,50.027400454420729],[19.860234232320511,50.027414550978357],[19.860059770782335,50.027467930668386],[19.859963547059738,50.027481508417068],[19.859811834704711,50.027486586705407],[19.859746815540042,50.027499270000575],[19.859680290433538,50.027540644689942],[19.85966033466137,50.027609340697772],[19.859569319083711,50.027677572508416],[19.859485284315358,50.027701405993199],[19.859288479596358,50.027719716390244],[19.859165341131316,50.02775965750871],[19.859154201843555,50.027784313172894],[19.859163495619978,50.027835402458734],[19.859153371250812,50.027864498668826],[19.859128880303327,50.027880219404601],[19.859070141750912,50.027886137846657],[19.859048939266142,50.027895176526435],[19.859011166662562,50.027939007357745],[19.859005410796012,50.027988229639206],[19.858964092628863,50.028022927869671],[19.858804448659477,50.028063018243323],[19.858688577493773,50.028111455709059],[19.858573502362056,50.02813898830442],[19.858433388916321,50.028199591415905],[19.85834990896705,50.02821545682616],[19.858306199739054,50.028210301910107],[19.858124232447285,50.028097227937486],[19.858070352369204,50.028072189451699],[19.85797106755123,50.028042920719066],[19.857813816634245,50.028016687692443],[19.857695405145318,50.028018599358035],[19.857464346155098,50.028044321340005],[19.857289262728209,50.027987826087831],[19.857217239789897,50.027975721101349],[19.857176375843249,50.027976690514834],[19.857123383440001,50.027988230865375],[19.857070518574773,50.028013530984801],[19.857002089323398,50.028081411317544],[19.856961080547585,50.028128009424222],[19.856887711132686,50.028186310298217],[19.856856858031389,50.02822794986907],[19.856845200011058,50.028290871985739],[19.856860679050357,50.028376691433245],[19.856845461046582,50.028413867360129],[19.856792443605833,50.028461397977011],[19.856727527607845,50.028503393358463],[19.856666646988938,50.028511352492927],[19.856586324470108,50.028487846351702],[19.856466378813145,50.028400340859136],[19.856368464125342,50.028347889171194],[19.856264646063771,50.028307605159739],[19.856217205277588,50.028297346067646],[19.856168765370509,50.028299624287598],[19.856035899156691,50.028329636502974],[19.855910071688491,50.028326408947258],[19.855863564461597,50.028339836118526],[19.855815994106653,50.028364485726762],[19.855670929232222,50.028465932769201],[19.855649189930446,50.028499359935772],[19.855661881066407,50.028512100414737],[19.855693662410882,50.028521848118345],[19.855875406582069,50.028540478250086],[19.855913607182817,50.028536258572366],[19.855935939615907,50.028512167545763],[19.855957811343849,50.028505138903583],[19.85599938367255,50.028515081513596],[19.85601222214909,50.028531470003536],[19.856017802262294,50.028575348928371],[19.8561394066062,50.028669054092617],[19.856158263859669,50.02869200007585],[19.856173911069646,50.028745233454579],[19.856222493218482,50.028766483732781],[19.856232844372421,50.028782788884911],[19.856233011040203,50.028840000634311],[19.856198138085489,50.028916788115588],[19.856184578320722,50.028998096721615],[19.856196909830789,50.02902720062616],[19.856223489277539,50.029038917294855],[19.856296565367174,50.029042390716128],[19.856550628259537,50.029096931620622],[19.856730168747422,50.029215447479459],[19.856766739578198,50.029251793002842],[19.856770791004411,50.029278942674345],[19.856727233806627,50.029330972924996],[19.856653854778322,50.029369223253418],[19.856588831531816,50.02938367178546],[19.856412977827215,50.029399446559232],[19.856349180838102,50.029419792360358],[19.856326165193181,50.029447179563263],[19.85631470194441,50.029561716186222],[19.856294140713764,50.02960201828882],[19.856205589674037,50.029661663302996],[19.856155614927033,50.029745801069723],[19.856065122921216,50.029843674548012],[19.855942626405884,50.029911149631758],[19.855919289425579,50.029933056421278],[19.855904426301912,50.029972979041787],[19.855913768629613,50.030103897530097],[19.855900722380678,50.030146091956389],[19.855878479977868,50.030151323941773],[19.855832122285296,50.030116760626733],[19.855803898757124,50.030107810838636],[19.855696898098941,50.030161740839262],[19.855601587871575,50.030196524658628],[19.855563596634209,50.030227933058889],[19.855554387544519,50.030251309170303],[19.855561164545218,50.030299834266039],[19.855544530331741,50.030340480647752],[19.855402270735862,50.03054855834209],[19.85530063207614,50.030656364049371],[19.855181139910453,50.030810215905611],[19.855169897585736,50.030862883712423],[19.855175675696934,50.030930600231891],[19.85513844077067,50.030975309298498],[19.85512854881145,50.031004924341943],[19.855228023325722,50.031204582399901],[19.855227145793773,50.031339900126959],[19.855163266005587,50.03142897572868],[19.855142520466288,50.031575082260403],[19.855108775898611,50.031639247432416],[19.855042970575862,50.031704789620832],[19.854836041374014,50.031855201592514],[19.854795129798312,50.031905997918926],[19.854780619512471,50.031946841759257],[19.854772056094848,50.032077679848037],[19.854744615457179,50.032234691233974],[19.854756735051996,50.032318817238902],[19.854749926692783,50.032415399377427],[19.854794540047713,50.032521645983998],[19.85489874765819,50.032650374026154],[19.855051253762888,50.032754020910282],[19.855077657172828,50.032782151237249],[19.855121185834015,50.032858640439947],[19.855151078175428,50.032949045711945],[19.855220471434727,50.03299058665197],[19.855241899375176,50.033014992912307],[19.855294461082575,50.03321649724802],[19.855291473284105,50.033247155429997],[19.855255817684277,50.033273691779847],[19.855173648767376,50.033303449879767],[19.855032096694178,50.033337685048991],[19.85499561969624,50.033354394684409],[19.854973197916728,50.033390753402522],[19.854982318819928,50.033431111868133],[19.855056227708932,50.033484336267392],[19.855170262069553,50.033528708919171],[19.855180481248745,50.03355445284835],[19.855177450362259,50.033636481701947],[19.855217901567705,50.033696774869775],[19.855400056530041,50.033864962299361],[19.855492095914283,50.03393261152479],[19.855546062459979,50.033989655140132],[19.855640495681079,50.034049641955278],[19.855660019154371,50.034087962348529],[19.855674842391039,50.03419685559107],[19.855695981146074,50.034239920715386],[19.855822075199711,50.03431605723965],[19.855957517923173,50.034371821428422],[19.855992644044282,50.034403552533718],[19.85601374186372,50.034443351136296],[19.856022654177103,50.034556372509996],[19.856146798296358,50.034785687647187],[19.856163584529391,50.03485596524861],[19.85616074520178,50.034984808832149],[19.856219960786163,50.035129938680406],[19.856204331711833,50.035199675393208],[19.856205440427839,50.035271918403971],[19.856225417314299,50.035353981747221],[19.856207567202389,50.035408949383005],[19.856236786703501,50.03548008530727],[19.856230751632634,50.03549708264125],[19.856193331274724,50.03552624227958],[19.856229161598485,50.035585104481711],[19.856238408178921,50.035627576174669],[19.856146890581861,50.03599240156209],[19.856106576128621,50.036092370807971],[19.85610525335359,50.036130314076971],[19.856142536244374,50.036209964553564],[19.856324703941773,50.036486600482853],[19.856393313928734,50.036633984784231],[19.856425423784181,50.036669819888772],[19.856517491659925,50.036742532412113],[19.856831394979412,50.036947697525875],[19.856958656286238,50.037016474637902],[19.857125026223361,50.037067695084595],[19.857192423651757,50.037080498273021],[19.857255815638847,50.037076711089618],[19.857555777006176,50.037032130522668],[19.857734189841189,50.037015680211304],[19.857838682159681,50.036997505235846],[19.857920186666519,50.036993931084851],[19.857999973818817,50.036946038388919],[19.858239229971709,50.036865931742184],[19.858406505240985,50.036829761543132],[19.858491026940925,50.036804035967421],[19.858731419842705,50.036699955823167],[19.858814829180112,50.036681195522213],[19.858917976854428,50.036669689906397],[19.85901489136095,50.03666591366477],[19.859106805647357,50.036671794712625],[19.859375423797665,50.036603619528726],[19.859481408857597,50.036547474210145],[19.859703772451358,50.036474782496633],[19.859851016349182,50.036386311322659],[19.860022622426747,50.036334461134921],[19.860136783625457,50.036272708049943],[19.860221717616742,50.036260860326983],[19.860269783546304,50.036242139621905],[19.86031294650326,50.036204421457256],[19.860422441729668,50.036053338530039],[19.86047167787585,50.036006322892646],[19.860521073171185,50.035982909352526],[19.860729665396988,50.035921230077527],[19.860789744728343,50.035918984200002],[19.86084291375359,50.035931727059804],[19.86084846272631,50.035950675601718],[19.860827377350176,50.035995036345675],[19.86083932280637,50.036019241099012],[19.86098898001071,50.03605536806846],[19.861052151559566,50.036056841814229],[19.861077655477629,50.036066245054151],[19.861170948067404,50.036153214760546],[19.861235432931871,50.036196785830832],[19.861287424898624,50.036255287225579],[19.861371827425025,50.036276757128583],[19.861402062917644,50.036279853457856],[19.861628544358684,50.036305343653275],[19.861705618731854,50.036327171814932],[19.861769362920359,50.03635835309521],[19.86191748311289,50.036407384601787],[19.861982693836449,50.036412797723067],[19.862082613727768,50.036406454078623],[19.862199009045636,50.036418657361715],[19.862550851609608,50.036533437698544],[19.862808042971544,50.036658062419242],[19.862871513679988,50.036671270273835],[19.862993799456756,50.036683111375204],[19.863212840804202,50.03676093104351],[19.863374896352077,50.036840285367219],[19.863587213398414,50.036927462519891],[19.863845998306921,50.036972008105586],[19.863897767427506,50.036995680393275],[19.86402790424161,50.037087511648252],[19.864256421142802,50.037224228811283],[19.864695370230283,50.037401041456619],[19.864843271211953,50.037450198622466],[19.865067042098449,50.037509526962687],[19.865321874648011,50.037570652070741],[19.865645604674146,50.037633797157817],[19.865823367345083,50.037678931856007],[19.866182005756119,50.037808398172558],[19.866398018511905,50.037909853032481],[19.866609520417203,50.038037314247831],[19.866908478796013,50.038145926551962],[19.867029574420989,50.038229170584522],[19.86724600780429,50.038317169499322],[19.867285725533566,50.038339873200229],[19.867348294857401,50.038389075537602],[19.867657484520592,50.038567015826224],[19.867960306952284,50.038818116896358],[19.868061674544993,50.038984245329907],[19.868067078609176,50.039018994915111],[19.868055158508835,50.039066705418954],[19.868065642637173,50.039101579850026],[19.868221401944542,50.039310697703407],[19.868339225743622,50.039525293979061],[19.868418427117156,50.03961663859539],[19.868638787637355,50.039814099251423],[19.868745146661936,50.039941747879105],[19.868894560852478,50.040032282264434],[19.869192845995009,50.040129633241982],[19.869362234919414,50.04022347492284],[19.86950726104455,50.040282483964681],[19.869711587267936,50.040397490325248],[19.869929177869594,50.040489573638474],[19.87002242234303,50.040538814498184],[19.870500080854761,50.040728651970134],[19.870749965524325,50.040795253493812],[19.870883580212382,50.040855640184361],[19.871008801859475,50.040901183695809],[19.8712049737521,50.040993527929245],[19.871424802528011,50.041060389605661],[19.871686003334226,50.041125391774024],[19.871755512145075,50.041144328116616],[19.87189828653527,50.04117179546315],[19.872053153638788,50.041175604467377],[19.872148965186422,50.041158695531578],[19.872279151883486,50.041101297751879],[19.872358186743661,50.041024948249785],[19.872426605831958,50.040939354136441],[19.87259398114756,50.04081310048425],[19.872626337721595,50.040778881415505],[19.872685851746123,50.040612533401074],[19.872766220438074,50.040506044856542],[19.872851351035699,50.040336768154923],[19.872923407902142,50.040286872056257],[19.873083936340933,50.040229571724012],[19.873234998577431,50.040030879163403],[19.873291985440741,50.039989899660924],[19.873450362016232,50.039915092697463],[19.87349162037539,50.039868339416145],[19.873525851791403,50.039806329929888],[19.873538226989623,50.039746497543952],[19.873427696923052,50.039545009538699],[19.873423775037065,50.039430713977929],[19.87337380629624,50.039353225679811],[19.873394109175994,50.039292086678337],[19.873370588025544,50.039266232131631],[19.87328423088373,50.039221691574632],[19.873267412240271,50.039195142396217],[19.873279914684574,50.039164954675336],[19.873392021789815,50.039035130061421],[19.873429009581642,50.038903249914092],[19.873528016166329,50.038689628793129],[19.873525868146181,50.038642768541855],[19.873489712661794,50.038543953584956],[19.8734864935264,50.038490486890765],[19.873466628265792,50.038458695696946],[19.873469213101206,50.03844340584584],[19.873548431177937,50.038408518906415],[19.873894177735938,50.038310379029994],[19.874043858534314,50.038253231890273],[19.874062598402162,50.038242026395281],[19.874096692279544,50.038195855856095],[19.874228209884741,50.038145698195898],[19.874320285587785,50.038092443013205],[19.874385093239706,50.038082073486052],[19.87441400364353,50.038057942866708],[19.874739747586247,50.037952010519781],[19.874787245782134,50.037915023517385],[19.874788654922632,50.037902706067776],[19.874781529500133,50.03790870761231],[19.874770132143052,50.037898935643078],[19.874785358653821,50.037874667855519],[19.874939004047146,50.037822508125615],[19.875258175659756,50.037792483732176],[19.875412631191406,50.037806735810356],[19.875475150583284,50.037822123898863],[19.875504043433498,50.037847301423668],[19.87549634174173,50.037882982659653],[19.875359292805094,50.03803921887809],[19.875231960103097,50.038179260150464],[19.875214910687923,50.03826529990252],[19.875185940275127,50.038314775374758],[19.875151131966589,50.038333426578973],[19.875054746133955,50.038343197927055],[19.875030991566941,50.038357399565307],[19.875047124136838,50.038385130457769],[19.875129504679052,50.038445437931152],[19.875137144462556,50.03850907100805],[19.875043920890864,50.038891879353649],[19.874996877886804,50.039009056670075],[19.87493767015982,50.039118542477731],[19.874856314737134,50.039245214597564],[19.874153302517946,50.040217991671305],[19.874084563543068,50.040298130828702],[19.873997377863834,50.040290191825619],[19.873751152242797,50.040251810021722],[19.873661270347466,50.040252017040821],[19.873608274007232,50.040268793886689],[19.873611612432789,50.040281093572922],[19.873635935688036,50.040294534442516],[19.873821063628032,50.040341739120784],[19.873879747892467,50.040368259085085],[19.873905033345594,50.040389525330625],[19.873916934681951,50.040419570738393],[19.87389862763186,50.040461822051938],[19.873712408666815,50.040654935772984],[19.873634697023302,50.040783337547673],[19.873562936764415,50.040854812647922],[19.873423923456322,50.040965415626737],[19.873146607912197,50.041158000275836],[19.87286570834733,50.041330480707849],[19.872632847235149,50.041455994571464],[19.872235764562443,50.041638811687555],[19.871859357078346,50.041785444151479],[19.871620734753844,50.041860768821152],[19.871219095980422,50.041972482001277],[19.870939534308185,50.042036713545073],[19.870535507737838,50.042112194783606],[19.870269445631607,50.042148718356806],[19.870164916949374,50.042149555206926],[19.870078003995694,50.042118055609663],[19.870048774578756,50.04211427922732],[19.870020063794687,50.042124202080174]],[[19.829256121482395,50.030498028143697],[19.829197225611495,50.030529595241696],[19.829024747788797,50.030658815159399],[19.828979459162614,50.030706921050047],[19.828961840715046,50.030754257073681],[19.828981202716417,50.030838464415524],[19.828973982260379,50.030890978535837],[19.82892820585149,50.030979729444184],[19.82883469641126,50.031077908089387],[19.828833248793387,50.031134834418587],[19.828852103575379,50.031194040402355],[19.828851367857855,50.031229763224808],[19.828803074681499,50.031294692150965],[19.828771534936642,50.031401507791095],[19.828688222119194,50.031494762378614],[19.828655044421186,50.031524274195121],[19.828650230713784,50.03154233379184],[19.82873003353912,50.031593196335706],[19.828798391681449,50.031691027735576],[19.828847351405642,50.031716082526913],[19.829052742061563,50.031768877337079],[19.829063401726192,50.031735860953717],[19.829029726951539,50.031506181161618],[19.829038120921229,50.031407765635343],[19.82904086746127,50.031176758615338],[19.829110831736742,50.031010625531742],[19.829158817704521,50.030847917095954],[19.829182247072065,50.030812962400915],[19.829269348440672,50.030756615219197],[19.829296533413412,50.030718663796961],[19.829297940900297,50.030680768821554],[19.829280141500149,50.030623337642588],[19.829305900069489,50.030514729597542],[19.829296537176248,50.030491556690997],[19.829256121482395,50.030498028143697]],[[19.853897077620786,50.027176987520591],[19.853907062404403,50.027219323565141],[19.853900458119647,50.027239022256573],[19.853841663245611,50.027298156838441],[19.853785000064999,50.027403807591902],[19.85370158944637,50.027484099435952],[19.853724508448504,50.027510552610678],[19.853775777125911,50.027538051378158],[19.853741523787985,50.027628138164928],[19.853732341938251,50.027683720085882],[19.853743110254836,50.027729763390525],[19.853773607846456,50.027764204014225],[19.853827771440013,50.027787971145194],[19.853902645504803,50.027789781913434],[19.8541162812182,50.02774129909168],[19.854330602501811,50.027668819737123],[19.854436508740122,50.027674574455915],[19.85453992407508,50.027640614480703],[19.854559227462275,50.027621238795774],[19.854546138286313,50.027607838056149],[19.854475591041513,50.027610825372186],[19.854432469620047,50.027593562961449],[19.854372397062516,50.027591370058893],[19.854367008443091,50.02757141955405],[19.854378408114449,50.027551071944323],[19.854555427530133,50.027388276261277],[19.854698972663165,50.02732684013634],[19.854735033431339,50.027327610981473],[19.854769450123754,50.027342449758237],[19.85477287960526,50.027322984928794],[19.854869138724215,50.027236357420165],[19.854919811765765,50.027174187219444],[19.85495856994282,50.027092867637016],[19.854945820256436,50.027036281190291],[19.855015123738834,50.02703699417205],[19.855103138133671,50.027027148148846],[19.855198692420373,50.026995743938322],[19.855268257869696,50.026956004840919],[19.855311184257669,50.026906624849438],[19.85531938232819,50.026877463099922],[19.855298086429908,50.026844059875167],[19.855249933736708,50.026808088937386],[19.855105262455364,50.02672802293646],[19.8550732835294,50.02669826295481],[19.855084708836188,50.026689377115311],[19.855243434375719,50.026702797698263],[19.855276977723467,50.026698751100724],[19.855285819988396,50.026587510511661],[19.855258544457449,50.026548066754991],[19.855204905857107,50.026527793509118],[19.855156513169565,50.026528307573287],[19.854970889653689,50.026613486686763],[19.854937238483792,50.026623336981729],[19.85489241891446,50.026622009040146],[19.854734529486375,50.026561250102311],[19.854660885819477,50.026516916928124],[19.854659013507685,50.026511119628623],[19.854674185026433,50.02650636100126],[19.854753812639082,50.026523057542327],[19.85479657864099,50.026524591397759],[19.854838252094904,50.026511701380592],[19.854866168644609,50.0264848388613],[19.854867153709112,50.02646275774466],[19.854843742226588,50.026431854959782],[19.85473926256207,50.026378851959073],[19.854688999578009,50.026366276539115],[19.85461723873782,50.026360425346162],[19.854518977105496,50.026413300294429],[19.854471224631084,50.026422500350684],[19.854350516908973,50.026396153704546],[19.854113827917587,50.026310708072984],[19.854041609322195,50.026302581881858],[19.85398624352932,50.026318276839746],[19.853948273815934,50.026360003106205],[19.853950167189222,50.02640692682688],[19.854108945339686,50.026591750942309],[19.85420508557133,50.026753080815318],[19.85420618557329,50.026798643742254],[19.854141626810854,50.026908897126475],[19.854140926409507,50.026942402183451],[19.854170948593943,50.026973043222654],[19.854283452208417,50.027038170345108],[19.854311362730122,50.0270853334777],[19.854296841419483,50.027108651442489],[19.854200630460056,50.027185833192419],[19.854128461332611,50.027223645682618],[19.854094429271822,50.027224494452071],[19.853930715274345,50.027174139004636],[19.853897077620786,50.027176987520591]],[[19.855928416261278,50.027046889649917],[19.856043994157538,50.027080154216215],[19.85609195254591,50.027048813358732],[19.856155319665493,50.027020953957575],[19.856288398574851,50.02700177587073],[19.856356569729723,50.026968812065419],[19.856374075395994,50.02694507505425],[19.856373744969538,50.026920209199936],[19.856306775484153,50.026866566421489],[19.85619948254967,50.026832606709554],[19.856096535841573,50.026835571344918],[19.855995031331052,50.026866012537006],[19.855918992852242,50.026914515098412],[19.855873594558819,50.026969441233518],[19.855871258764299,50.02700680723229],[19.855928416261278,50.027046889649917]],[[19.831101329913153,50.0270191805336],[19.831120942729569,50.026956347140704],[19.831124053455216,50.026936391383771],[19.831130873385138,50.026911656911643],[19.831181493447883,50.026652960757893],[19.831219060107404,50.026556463792019],[19.831206621159769,50.026494974666548],[19.831214252197942,50.026318830437177],[19.831182406021458,50.025815372863839],[19.831133923566718,50.025562936631552],[19.831110667302255,50.025507666229046],[19.831088995647807,50.025491780902634],[19.83106850320501,50.025521330358337],[19.831064759317467,50.025602195018422],[19.831116284471062,50.026009041786502],[19.831100036300818,50.02639511068147],[19.831053191577954,50.026656837812538],[19.83107961279573,50.026840132690687],[19.831062824786112,50.026993261886304],[19.831066233767128,50.027029355430962],[19.831078467545186,50.0270436709175],[19.831101329913153,50.0270191805336]],[[19.85398644832696,50.025476526618156],[19.853952138841489,50.025489305463516],[19.853900331818753,50.025535063385966],[19.853867697503773,50.025588612768942],[19.853873463471061,50.025623019423321],[19.853908327470457,50.025653247039529],[19.853956213791239,50.025673765644171],[19.854024792819491,50.025688471104857],[19.85407748793817,50.025692949707604],[19.854122626347081,50.025683642194743],[19.854148536172104,50.025659072625835],[19.854200289003028,50.025558925210262],[19.854200357131564,50.025534340714351],[19.854177267544753,50.025504371998593],[19.854134701322273,50.025488694239044],[19.854027706652623,50.025475074987021],[19.85398644832696,50.025476526618156]],[[19.843968798171861,50.024794622153493],[19.843988365811917,50.024829040473136],[19.844047239256387,50.024880177020677],[19.84411480869597,50.024923812559976],[19.844201426484368,50.024895491862281],[19.844256064035147,50.024858558929324],[19.844265495924539,50.024834890582866],[19.844252544709661,50.024769160900554],[19.844302176190485,50.024694817531739],[19.84429616479553,50.024661946165793],[19.844266766150401,50.024630105952689],[19.844241096911368,50.024618463597122],[19.844188000852704,50.024615927674503],[19.844110829338064,50.024635952902017],[19.844040847262267,50.024673368946623],[19.843989305451579,50.024722475441052],[19.843969342411885,50.024764792624225],[19.843968798171861,50.024794622153493]],[[19.830878425520446,50.024878107388879],[19.8308782180621,50.024860009852866],[19.830838506023174,50.024760373941803],[19.830742449529808,50.024582764170816],[19.830734092058986,50.024548061856969],[19.830749581298271,50.024512153290118],[19.830794737034509,50.024490863692485],[19.830856891239065,50.024478015603911],[19.831104877626068,50.024453961750744],[19.831230173539556,50.024433714741434],[19.831283365640637,50.024409340838041],[19.831294859381952,50.024381703759246],[19.831259831528687,50.024366430560001],[19.831173742003621,50.024354694488871],[19.83076832402817,50.024351378928529],[19.830638149867234,50.024334276523007],[19.830577257884837,50.024303941234699],[19.830469920910506,50.024179695987058],[19.830425892843891,50.024142618229305],[19.830298988814477,50.024093451454583],[19.830114070805148,50.023981394803187],[19.830035299117402,50.023959813337243],[19.830068794853297,50.024102095122629],[19.830096479491349,50.024156348008241],[19.830199638991111,50.024294473282133],[19.830306402538909,50.024463735166549],[19.830343657668131,50.024492218128707],[19.830404753437932,50.024522380240143],[19.830458146793166,50.024560999625947],[19.830691837148329,50.024787511283492],[19.830817046391278,50.024867426698343],[19.830865139497696,50.02488597941678],[19.830878425520446,50.024878107388879]],[[19.836750234965553,50.023952599800324],[19.836849966160074,50.023985646841922],[19.836988650331069,50.023967467104384],[19.837061990920709,50.023923125085176],[19.837084894896734,50.02389244874233],[19.837088099654235,50.023858932029206],[19.837068743697092,50.023823851553175],[19.837039657443302,50.023800682057022],[19.8369990778016,50.023797096196375],[19.836901200634717,50.023828221474105],[19.836864525640308,50.023818292494482],[19.83682347910699,50.023770310322043],[19.836789737853952,50.023776520364237],[19.836767226620367,50.023793558141435],[19.836696477809035,50.023908242309716],[19.836750234965553,50.023952599800324]],[[19.845885968554533,50.023722895804013],[19.845931492515742,50.023723470843947],[19.846012241989413,50.023687840203586],[19.846030237259217,50.023665358943632],[19.846020988738946,50.023613221034175],[19.846034293880201,50.023594274655039],[19.846146854446527,50.02359448591222],[19.846173943527788,50.023582741783045],[19.846189951971969,50.023562035675944],[19.846193281579993,50.023523030583966],[19.8461732618489,50.023488135489082],[19.846024661963657,50.023359468542985],[19.846009588534383,50.023354697623496],[19.845906356434536,50.023393502512526],[19.845814468701345,50.023450975936164],[19.845749291163784,50.023508221333458],[19.845715479833284,50.023563016774617],[19.845711355596126,50.023601087468165],[19.845741770523972,50.023647762078902],[19.84580207188332,50.02369398583663],[19.845885968554533,50.023722895804013]],[[19.849739937364092,50.022807549581735],[19.84968643453848,50.02284281419012],[19.8495907956707,50.022932894024912],[19.849544739891083,50.022992308375969],[19.849541993858828,50.023036296276963],[19.84959034178474,50.023104853992514],[19.849597125388961,50.023130880011585],[19.849591929325133,50.023155590222302],[19.84955340288322,50.02321151173841],[19.849553098003046,50.02323547628437],[19.849572868757612,50.023252559685169],[19.849629877892664,50.023271404641434],[19.849872770156459,50.023298251434191],[19.849844779477902,50.0232476752849],[19.849841679454414,50.023221483752117],[19.849851090022831,50.02319543451776],[19.849903492490039,50.023137047792723],[19.849904810972024,50.023082056346681],[19.849890281285681,50.023038709584569],[19.849809669652998,50.022969059428064],[19.849794521264968,50.02293931598264],[19.849822431052509,50.022907594591985],[19.849892856509896,50.0228917481273],[19.849937636129976,50.022900118351743],[19.849973633056049,50.022926507081408],[19.850038678263058,50.023045753143961],[19.850112509017332,50.023129241449176],[19.850162637995741,50.023214078346243],[19.850185669810514,50.023227608272407],[19.850232964954959,50.02323385018299],[19.850286188613055,50.02322343048079],[19.8504202512818,50.023168289519802],[19.850468342430382,50.023139734529735],[19.850484544339256,50.023116494681688],[19.850438130318164,50.023063027141525],[19.850349258208681,50.023012382645845],[19.85004572428107,50.022886595138516],[19.849884268080924,50.022799766548651],[19.849850393042058,50.022792087477924],[19.849795239522461,50.02279211801072],[19.849739937364092,50.022807549581735]],[[19.844222470329491,50.022479102659794],[19.844235613057748,50.022582490149219],[19.84428402457371,50.022669872889551],[19.844339458032159,50.022721829655069],[19.844417459940978,50.022750467782956],[19.844527503251449,50.022754327368837],[19.844540636939822,50.022751626287381],[19.844571824273835,50.02271183459667],[19.844634453721735,50.022603068828445],[19.844628119199573,50.022566738717209],[19.844595994492689,50.02251125120651],[19.844601857176478,50.022433945060989],[19.844580869798939,50.022401670327177],[19.844537972572585,50.022375936538353],[19.844471511369754,50.022360284287295],[19.844387580727108,50.022358965201285],[19.844293157080653,50.022374763403974],[19.844260189418574,50.022392971844461],[19.844239258649591,50.022418171457289],[19.844222470329491,50.022479102659794]],[[19.836541948828984,50.021777505953594],[19.836595976574475,50.021763538363054],[19.836629894241508,50.021738781819145],[19.83666659562617,50.021692679875699],[19.836694813203682,50.021610369942799],[19.836690671787494,50.021572121650742],[19.836662621181429,50.02153090583024],[19.836634582573559,50.021513131303735],[19.836570677000427,50.02149550378337],[19.836499945978062,50.021437436741436],[19.836481961676988,50.021432130461093],[19.83641388119166,50.021447244727838],[19.836380303080425,50.021476834589073],[19.836331111244572,50.021569053633321],[19.836311728706917,50.02165541587982],[19.836322168562734,50.021694038046689],[19.836351664032442,50.021722050501019],[19.836404451998575,50.021743965218171],[19.836465674078926,50.021746885170501],[19.836541948828984,50.021777505953594]],[[19.841601949289927,50.020457031305938],[19.841658511351135,50.020487341855301],[19.841684618354655,50.020513732010073],[19.841733749640039,50.020636460289595],[19.841763938453539,50.020676438510314],[19.841921838392071,50.020783952047239],[19.842037304138501,50.020841858546738],[19.842043483518427,50.020880702762362],[19.841991311691064,50.021045361825358],[19.841975465224564,50.02116343051852],[19.841977425460318,50.021192333196538],[19.842018899383469,50.021212273466809],[19.842104203589741,50.021222389549607],[19.842217961448924,50.021218001206542],[19.842288379727808,50.021203979475686],[19.842324160078828,50.021186752528926],[19.842359575785601,50.021151070200162],[19.842382309484901,50.021110763752972],[19.842402685239364,50.021044780201947],[19.842384190839585,50.020991807619758],[19.842212862458158,50.020854718632187],[19.842226185439689,50.020771338628499],[19.84219456977662,50.020711832337767],[19.842236394579835,50.020634536097511],[19.842238068565162,50.020596423918143],[19.842205381856495,50.020570375839633],[19.842124522757768,50.020545362013024],[19.841655966081916,50.020448438870467],[19.84160197888524,50.020446416560539],[19.841601949289927,50.020457031305938]],[[19.841029765542501,50.020144651084799],[19.840941880837658,50.0201634482274],[19.840886320738317,50.020190090279243],[19.840859967774016,50.020217971867524],[19.840851032410203,50.020244452382734],[19.84085447520285,50.020270253908315],[19.840879191579525,50.020296285448197],[19.840996735951791,50.020332062665446],[19.841211350175907,50.020373152350317],[19.84134896770971,50.020403401756496],[19.841495706319183,50.020413733219911],[19.841503337795146,50.020398401160044],[19.841462920000922,50.020356131762185],[19.841484211123891,50.020331943978981],[19.84157090633688,50.020311954867694],[19.841659236459829,50.020321207221862],[19.841684658951579,50.020301073124976],[19.84168080430382,50.020201295880469],[19.841645883242688,50.020154266007481],[19.841598112915392,50.020133774773576],[19.841490137663655,50.020118368809065],[19.841029765542501,50.020144651084799]],[[19.842457450341591,50.020327680478289],[19.842582518890939,50.02036812483405],[19.842604973364871,50.020383335677018],[19.842623332844553,50.020379259926948],[19.84264876807277,50.020345266715559],[19.842643827437165,50.020269814181582],[19.842660768319817,50.020265747826855],[19.842738880829668,50.02027441408368],[19.842773973694293,50.020251461866721],[19.842786734872202,50.020220158972307],[19.842772483425275,50.020172504280438],[19.842662310119607,50.020062121696839],[19.842657615820848,50.020035874966922],[19.842677563046589,50.020022631542098],[19.842701897297996,50.020021341913491],[19.842748025257521,50.020033896768126],[19.842848592056583,50.020085641633607],[19.842873252150053,50.020085176416728],[19.84296667248914,50.02005791650663],[19.843133605976369,50.020088986376884],[19.843316479380224,50.020074917925207],[19.843348100081915,50.020091984646768],[19.843388323386236,50.02016772773991],[19.84341161563248,50.020182368233677],[19.843438843771725,50.020185655728561],[19.843540490268474,50.02016383356586],[19.843581274645171,50.020125114064015],[19.843581719784304,50.020074063366565],[19.843540986344184,50.020014175670092],[19.843291259274906,50.019798027538535],[19.843217915683315,50.01972975138397],[19.843151952211112,50.019676882718194],[19.843095886826909,50.019650376768773],[19.843040502976994,50.019644779115872],[19.842938772815533,50.019659695438015],[19.842916062965962,50.019656211262593],[19.84291867522764,50.019640950653169],[19.842972893546978,50.019602046508354],[19.842982376712069,50.019586436387797],[19.842978433969122,50.019573062359832],[19.842953408910308,50.019564385809993],[19.842891266221123,50.01956274363387],[19.842806289389983,50.019574613258953],[19.842727250889645,50.019596123050739],[19.842638986251014,50.019633578398398],[19.842592722997757,50.019674736825245],[19.842570590626291,50.019737320660489],[19.842582249610736,50.019763232522948],[19.842655803272468,50.019817063942298],[19.842634179778265,50.019869063748821],[19.842651341350741,50.019917855227419],[19.842607920010838,50.019947470702498],[19.842482385701938,50.019977662547532],[19.842417491838038,50.020003339356862],[19.842281116542786,50.020098417886942],[19.842258434094155,50.020131650594614],[19.842255052509859,50.020162742301949],[19.842287005739987,50.020222884010487],[19.842326555803883,50.02027059534344],[19.842457450341591,50.020327680478289]]]},"properties":{"FID":0,"OBJECTID_1":236,"ID_HYD_R":"2","NAZWA_MPHP":"Wisła","ID_PRNG":"148550","NAZWA_PRNG":"Wisła","NAZ_DORZ":"obszar dorzecza Wisły","KOD_DORZ":"PL2000","NAZ_RW":"region wodny Górnej-Zachodniej Wisły","NAZ_ZLEWNI":"Wisła","KOD_OB_N":"PL2000_R_000000002_0001","ID_SCEN":"WZ","OPIS":" ","WERSJA":"2019v1","Shape_Leng":26812.806209499999,"Shape_Area":5666590.0610800004}}]}