{"type":"FeatureCollection","features":[{"type":"Feature","id":0,"geometry":{"type":"Point","coordinates":[36.25688983200007,32.872811851000051]},"properties":{"FID":0,"name":"Zorava","lat":32.845402999999997,"long":36.249856000000001}},{"type":"Feature","id":1,"geometry":{"type":"Point","coordinates":[35.108389000000045,32.00861100000003]},"properties":{"FID":1,"name":"Thamna (Tell Tibneh)","lat":32.008611000000002,"long":35.108389000000003}},{"type":"Feature","id":2,"geometry":{"type":"Point","coordinates":[35.515556000000061,32.825000000000045]},"properties":{"FID":2,"name":"Tarichaeae","lat":32.825000000000003,"long":35.515555999999997}},{"type":"Feature","id":3,"geometry":{"type":"Point","coordinates":[35.279422768000074,32.75320838600004]},"properties":{"FID":3,"name":"Sepphoris","lat":32.745556000000001,"long":35.278610999999998}},{"type":"Feature","id":4,"geometry":{"type":"Point","coordinates":[35.189682047000076,32.275867555000048]},"properties":{"FID":4,"name":"Sebaste","lat":32.276111,"long":35.195278000000002}},{"type":"Feature","id":5,"geometry":{"type":"Point","coordinates":[35.133582370000056,32.408562579000034]},"properties":{"FID":5,"name":"Narbata","lat":32.408562578999998,"long":35.133582369999999}},{"type":"Feature","id":6,"geometry":{"type":"Point","coordinates":[35.624088411000059,31.567351563000045]},"properties":{"FID":6,"name":"Machaerus","lat":31.567351562999999,"long":35.624088411000002}},{"type":"Feature","id":7,"geometry":{"type":"Point","coordinates":[34.905289972000048,31.955356710000046]},"properties":{"FID":7,"name":"Lydda","lat":31.951944000000001,"long":34.888055999999999}},{"type":"Feature","id":8,"geometry":{"type":"Point","coordinates":[35.673541950000072,31.840083176000064]},"properties":{"FID":8,"name":"Livias (Tell el-Hammam)","lat":31.840083176,"long":35.673541950000001}},{"type":"Feature","id":9,"geometry":{"type":"Point","coordinates":[34.753144454000051,32.054129053000054]},"properties":{"FID":9,"name":"Joppa","lat":32.052222,"long":34.753056000000001}},{"type":"Feature","id":10,"geometry":{"type":"Point","coordinates":[35.232461765000039,31.778244742000027]},"properties":{"FID":10,"name":"Jerusalem","lat":31.778339283000001,"long":35.235464503999999}},{"type":"Feature","id":11,"geometry":{"type":"Point","coordinates":[35.434558860000038,31.853316649000078]},"properties":{"FID":11,"name":"Jericho","lat":31.871110999999999,"long":35.444167}},{"type":"Feature","id":12,"geometry":{"type":"Point","coordinates":[34.747520500000064,31.866306700000052]},"properties":{"FID":12,"name":"Jamnia","lat":31.866306699999999,"long":34.7475205}},{"type":"Feature","id":13,"geometry":{"type":"Point","coordinates":[35.659809282000026,32.778670634000036]},"properties":{"FID":13,"name":"Hippos","lat":32.779000000000003,"long":35.659999999999997}},{"type":"Feature","id":14,"geometry":{"type":"Point","coordinates":[35.808869202000039,31.800517489000072]},"properties":{"FID":14,"name":"Heshbon","lat":31.800817811999998,"long":35.809634832999997}},{"type":"Feature","id":15,"geometry":{"type":"Point","coordinates":[35.241755863000037,31.665760593000073]},"properties":{"FID":15,"name":"Herodium","lat":31.665760593000002,"long":35.241755863000002}},{"type":"Feature","id":16,"geometry":{"type":"Point","coordinates":[35.215556000000049,31.961944000000074]},"properties":{"FID":16,"name":"Gophna","lat":31.961943999999999,"long":35.215555999999999}},{"type":"Feature","id":17,"geometry":{"type":"Point","coordinates":[35.449152798000057,33.02785046300005]},"properties":{"FID":17,"name":"Gischala","lat":33.024723999999999,"long":35.448307999999997}},{"type":"Feature","id":18,"geometry":{"type":"Point","coordinates":[34.465000000000032,31.504700000000071]},"properties":{"FID":18,"name":"Gaza","lat":31.5047,"long":34.465000000000003}},{"type":"Feature","id":19,"geometry":{"type":"Point","coordinates":[35.739952549000066,32.901986848000035]},"properties":{"FID":19,"name":"Gamala","lat":32.902777999999998,"long":35.740555999999998}},{"type":"Feature","id":20,"geometry":{"type":"Point","coordinates":[35.716993000000059,32.02234100000004]},"properties":{"FID":20,"name":"Gadora","lat":32.038200000000003,"long":35.7286}},{"type":"Feature","id":21,"geometry":{"type":"Point","coordinates":[35.677683740000077,32.656801981000058]},"properties":{"FID":21,"name":"Gadara","lat":32.656539000000002,"long":35.677681}},{"type":"Feature","id":22,"geometry":{"type":"Point","coordinates":[35.338889000000052,32.85055600000004]},"properties":{"FID":22,"name":"Gabara","lat":32.850555999999997,"long":35.338889000000002}},{"type":"Feature","id":23,"geometry":{"type":"Point","coordinates":[35.139987200000064,32.615171100000055]},"properties":{"FID":23,"name":"Gabae","lat":32.615171099999998,"long":35.1399872}},{"type":"Feature","id":24,"geometry":{"type":"Point","coordinates":[35.392397194000068,31.461558912000044]},"properties":{"FID":24,"name":"En Gedi","lat":31.462437999999999,"long":35.391962100000001}},{"type":"Feature","id":25,"geometry":{"type":"Point","coordinates":[34.990705499000057,31.839714119000064]},"properties":{"FID":25,"name":"Emmaus","lat":31.839300000000001,"long":34.9895}},{"type":"Feature","id":26,"geometry":{"type":"Point","coordinates":[36.618230597000036,32.75414968900003]},"properties":{"FID":26,"name":"Canatha","lat":32.755555999999999,"long":36.616667}},{"type":"Feature","id":27,"geometry":{"type":"Point","coordinates":[34.891079660000059,32.498468423000077]},"properties":{"FID":27,"name":"Caesarea Maritima","lat":32.5,"long":34.891666999999998}},{"type":"Feature","id":28,"geometry":{"type":"Point","coordinates":[35.692985990000068,33.246180330000072]},"properties":{"FID":28,"name":"Caesarea-Paneas","lat":33.246110999999999,"long":35.693333000000003}},{"type":"Feature","id":29,"geometry":{"type":"Point","coordinates":[35.619410000000073,32.89283000000006]},"properties":{"FID":29,"name":"Bethsaida (Khirbet el-Araj)","lat":32.892829999999996,"long":35.619410000000002}},{"type":"Feature","id":30,"geometry":{"type":"Point","coordinates":[34.995044559000064,31.696194397000056]},"properties":{"FID":30,"name":"Bethleptenpha","lat":31.692222000000001,"long":34.994444000000001}},{"type":"Feature","id":31,"geometry":{"type":"Point","coordinates":[34.893651000000034,31.607789000000025]},"properties":{"FID":31,"name":"Beit Guvrin","lat":31.607789,"long":34.893650999999998}},{"type":"Feature","id":32,"geometry":{"type":"Point","coordinates":[34.840673263000042,31.244948787000055]},"properties":{"FID":32,"name":"Beersheba","lat":31.245111168000001,"long":34.840483333999998}},{"type":"Feature","id":33,"geometry":{"type":"Point","coordinates":[36.000009930000033,32.919902973000035]},"properties":{"FID":33,"name":"Bathyra","lat":33.071111000000002,"long":36.184167000000002}},{"type":"Feature","id":34,"geometry":{"type":"Point","coordinates":[35.483621138000046,32.815092418000063]},"properties":{"FID":34,"name":"Arbela","lat":32.819389700000002,"long":35.490076799999997}},{"type":"Feature","id":35,"geometry":{"type":"Point","coordinates":[34.441325092000056,31.532471712000074]},"properties":{"FID":35,"name":"Anthedon","lat":31.536325999999999,"long":34.479750000000003}},{"type":"Feature","id":36,"geometry":{"type":"Point","coordinates":[35.618723917000068,32.239174823000042]},"properties":{"FID":36,"name":"Amathus (Tell Amatha)","lat":32.185600000000001,"long":35.686700000000002}},{"type":"Feature","id":37,"geometry":{"type":"Point","coordinates":[35.342849000000058,32.127218000000028]},"properties":{"FID":37,"name":"Acrabata","lat":32.126389000000003,"long":35.343611000000003}},{"type":"Feature","id":38,"geometry":{"type":"Point","coordinates":[35.652938308000046,31.850554429000056]},"properties":{"FID":38,"name":"Abila","lat":31.850554428999999,"long":35.652938308000003}}]}