{"type":"FeatureCollection","features":[{"type":"Feature","id":1,"geometry":{"type":"MultiPolygon","coordinates":[[[[16.175738495356356,50.846588542554841],[16.17529744664834,50.846610649928536],[16.175382224183373,50.847529016784925],[16.175479924899115,50.84805126374016],[16.174825771784544,50.847539124252883],[16.174643428714521,50.847351044664642],[16.174514608148666,50.847135901033731],[16.17440104554273,50.846898260330349],[16.174209336977231,50.846621127371286],[16.174161559197799,50.846340045467443],[16.174087950941942,50.846148486835226],[16.174162454344629,50.846078581917425],[16.173946897140908,50.845661920687505],[16.173980707854827,50.84552364987514],[16.174064876148989,50.84545564381164],[16.174581524413327,50.845300792376982],[16.174698432996035,50.845254642644235],[16.174766264444379,50.845176719849626],[16.174778483868952,50.845063057944422],[16.174613458012999,50.844817997204942],[16.174338427010003,50.844537924081486],[16.174324306789007,50.844402319304727],[16.174248378347631,50.844237138689387],[16.174146351807646,50.844153377875237],[16.173764058949239,50.844016608100034],[16.173522960474457,50.843890113043088],[16.173261182449405,50.843719305695259],[16.17325750292288,50.843512624925069],[16.173288249557157,50.843378449507554],[16.173926079300632,50.842922022856776],[16.174643847134483,50.842367240013971],[16.175057017095231,50.842086081592917],[16.175215916644987,50.842051530799296],[16.175462692646153,50.842060393252005],[16.175630490304624,50.842100712763738],[16.176077552880933,50.842356189133426],[16.176281088370065,50.842412244478076],[16.17679613966266,50.84249858805746],[16.177038546736608,50.842568308556807],[16.177212050905322,50.842971340432015],[16.17748801882453,50.843662827158418],[16.177698641028464,50.844026852944609],[16.178628308252538,50.844162363100082],[16.178616949912094,50.844780678267924],[16.178609542573589,50.845709034459304],[16.178591490785127,50.847085447786739],[16.178590105934429,50.847523247687697],[16.177937078486888,50.84746372649257],[16.177878824934702,50.847477655906069],[16.177874397008171,50.84736598335946],[16.176466443330547,50.847393570080392],[16.176455023725385,50.847051200359246],[16.176461740996423,50.846868701778305],[16.17644153287884,50.846550770987022],[16.175738495356356,50.846588542554841]]],[[[16.170481263336509,50.848882023175726],[16.170404394109738,50.848881019961418],[16.170230084208512,50.848548927406135],[16.169877786875226,50.848255684891001],[16.169892516205703,50.84802443910533],[16.169977002271292,50.847869281552974],[16.169675461429925,50.847851001333758],[16.16855961246614,50.847701681573987],[16.168559532072301,50.847409830671282],[16.167605711896091,50.847319148717546],[16.167295900986762,50.847534049047582],[16.166210478549207,50.847432944422557],[16.165867654122291,50.84761787731761],[16.165762838163769,50.847546306054873],[16.165389091218032,50.847474251428942],[16.164930601864839,50.847356704535478],[16.164694052491051,50.84727066712653],[16.164472729566405,50.846967564591807],[16.164843720286257,50.846279629471582],[16.164839160601289,50.846141871418574],[16.16480114434842,50.84605725262972],[16.164651047454758,50.845874810533623],[16.164568903548822,50.845811044214763],[16.163949117123575,50.845752382975057],[16.1637355813398,50.845684278624255],[16.163618443026539,50.845627056542277],[16.163397820446324,50.845441494569478],[16.163189597019826,50.84524360736993],[16.16294132024338,50.845092865745116],[16.162473379979311,50.844882205901754],[16.162198303378361,50.844695336289767],[16.162000677899456,50.844430424692561],[16.16175485866869,50.844160070314615],[16.161673740540166,50.844223973242507],[16.162134776008568,50.844710364881003],[16.162417611719157,50.844901944785008],[16.162941732853572,50.845146757431991],[16.163320669308941,50.845437830860853],[16.161863649497338,50.84539380224323],[16.161294419413053,50.844666646076043],[16.161011311434013,50.84432956886932],[16.160654766022063,50.844655915282672],[16.160007023048788,50.84468427860169],[16.159959522064838,50.844902622701412],[16.160133182062566,50.844954754818311],[16.159476394512346,50.845858459638357],[16.159637703442659,50.846044940898217],[16.160153006718215,50.846265737146723],[16.160531423954815,50.846364640141388],[16.16053732663682,50.846780201903066],[16.158683667015179,50.846502882783106],[16.158284395910606,50.846008401899105],[16.157991668424554,50.845682528823041],[16.157034614655295,50.845327823176547],[16.157498241166497,50.845432537684438],[16.157475002332415,50.845182669825519],[16.157412503289152,50.845107492201073],[16.1578001854819,50.845032703138855],[16.158390673226311,50.845040734472512],[16.158561800452631,50.844921302495052],[16.158601986351528,50.844623094534327],[16.158710623043365,50.844580490505365],[16.158704348941917,50.844238560841895],[16.158819339706099,50.844237041077832],[16.158825152870502,50.84395828709274],[16.157840858159958,50.843990295729974],[16.157686691024779,50.84371365638561],[16.156490822984665,50.842332899696117],[16.15623386395643,50.8418201078062],[16.155004525501987,50.841657087001209],[16.154674231675543,50.84193099832796],[16.153997999415896,50.841966766694476],[16.153261757812306,50.841479284724493],[16.152576200522162,50.841925327772252],[16.152043855407701,50.842163510274844],[16.151157949393788,50.841839490652788],[16.151412954662739,50.841380121402224],[16.15183751534958,50.840905853220768],[16.151466957862993,50.840739724276119],[16.149935232873528,50.8387173075768],[16.15011633433538,50.837834565422462],[16.150147951337701,50.837273632498587],[16.150779818787857,50.835802276308733],[16.151603613179908,50.83629435786866],[16.153237276554432,50.837499966976267],[16.152652088278344,50.83774414904984],[16.153072567912979,50.838194868516545],[16.153925247106351,50.840082356801055],[16.155678960407887,50.840363240355153],[16.156050012838996,50.840032850331369],[16.156750968857331,50.839674187429544],[16.159313832251069,50.839352520445559],[16.159878904448043,50.839514024452654],[16.161270411620677,50.840154295761664],[16.162005065637292,50.840743087357566],[16.162749318461202,50.84122230365341],[16.163451193606278,50.841442019704445],[16.16406485861582,50.841510896943753],[16.164225105817909,50.841516877994273],[16.164567795645972,50.842199397947347],[16.165103127075994,50.842802343416956],[16.166900552160691,50.842676372849205],[16.16719807826054,50.842900427818407],[16.16918285686851,50.843174875016949],[16.170431885523747,50.843433756765172],[16.170843005251786,50.843463114829326],[16.17180018308532,50.843668868509567],[16.17312777522768,50.843846744627079],[16.173297749045478,50.84384877760057],[16.173339227089965,50.843852029769685],[16.173563120276938,50.843997567411833],[16.174083368144828,50.844184620100101],[16.174304580132659,50.844654044602677],[16.174397885177232,50.844689137071086],[16.174643598540161,50.844941987221851],[16.174597504616237,50.845059774370981],[16.174515673050134,50.8451558714142],[16.174255853731037,50.8453145143311],[16.173942344607962,50.845363035210497],[16.173800936977475,50.845472594333096],[16.173780680082565,50.845615370304621],[16.174038907369045,50.846159781662919],[16.174145922157319,50.846519369420413],[16.174138409045749,50.846744313076321],[16.172779649007442,50.846853013842455],[16.172789925108493,50.847408334454251],[16.172848772414294,50.847673561518377],[16.173217000098361,50.848216506914774],[16.171644779280296,50.84834564816267],[16.171743407020273,50.848808460024578],[16.170290212044023,50.848527859045056],[16.170481263336509,50.848882023175726]]]]},"properties":{"OBJECTID":1,"Shape_Length":9162.611850028241,"Shape_Area":948702.64291291719}}]}